{"version": 0.6, "generator": "Overpass API 0.7.62.4 2390de5a", "osm3s": {"timestamp_osm_base": "2024-12-30T00:13:53Z", "copyright": "The data included in this document is from www.openstreetmap.org. The data is made available under ODbL."}, "elements": [{"type": "node", "id": 61670779, "lat": 37.7721448, "lon": -122.4310153, "tags": {"addr:city": "San Francisco", "addr:housenumber": "530", "addr:state": "CA", "addr:street": "Haight Street", "alt_name": "Woods Beer;Lowside", "amenity": "pub", "branch": "Lowside", "contact:facebook": "woodsbeerco", "contact:instagram": "woodsbeer", "contact:twitter": "woodsbeer", "drink:beer": "yes", "drink:wine": "yes", "email": "info@woodsbeer.com", "indoor_seating": "yes", "name": "Woods Lowside", "note:name": "Part of Woods Beer, sign says both \"Woods\" and \"Lowside\", but their website makes Lowside sound like a branch", "old_name": "Mad Dog in the Fog", "opening_hours": "Su,Mo-We 13:00-22:00; Th 13:00-23:00; Fr-Sa 13:00-24:00", "opening_hours:url": "https://www.woodsbeer.com/lowside", "outdoor_seating": "patio", "phone": "+1 415 5485734", "website": "https://www.woodsbeer.com/lowside", "wheelchair": "yes"}}, {"type": "node", "id": 61671096, "lat": 37.77191, "lon": -122.4312219, "tags": {"addr:housenumber": "547", "addr:street": "Haight Street", "amenity": "pub", "check_date": "2024-12-26", "contact:email": "info@toronado.com", "contact:fax": "415 621 0322", "contact:myspace": "toronadosf", "contact:phone": "415 863 2276", "contact:website": "http://www.toronado.com/", "name": "Toronado", "opening_hours": "11:00-02:00"}}, {"type": "node", "id": 61671382, "lat": 37.7720543, "lon": -122.4317624, "tags": {"addr:housenumber": "582", "addr:street": "Haight Street", "amenity": "pub", "check_date": "2024-11-26", "level": "0", "name": "Molotov's", "opening_hours": "15:00-02:00", "sport": "billiards", "wheelchair": "yes"}}, {"type": "node", "id": 61672275, "lat": 37.7718891, "lon": -122.4314192, "tags": {"addr:housenumber": "557", "addr:street": "Haight Street", "amenity": "pub", "check_date": "2023-11-08", "name": "Noc Noc", "short_name": "NocNoc", "website": "https://www.nocnocs.com/", "wheelchair": "no"}}, {"type": "node", "id": 61673273, "lat": 37.7718647, "lon": -122.4332636, "tags": {"addr:city": "San Francisco", "addr:housenumber": "668", "addr:postcode": "94117", "addr:state": "CA", "addr:street": "Haight Street", "amenity": "pub", "check_date": "2024-11-16", "contact:facebook": "dannycoyles", "contact:twitter": "dannycoylessf", "contact:yelp": "http://www.yelp.com/biz/danny-coyles-san-francisco", "name": "Danny Coyles", "opening_hours": "Mo 16:00-22:00; Tu 14:00-22:00; We-Fr 14:00-26:00; Sa 07:00-26:00; Su 07:00-22:00", "opening_hours:url": "http://www.dannycoyles.com/", "phone": "+1 415 5588375", "sport": "billiards", "website": "http://www.dannycoyles.com/", "website:calendar": "http://www.dannycoyles.com/sports-page.html"}}, {"type": "node", "id": 393134624, "lat": 37.7855464, "lon": -122.4216191, "tags": {"amenity": "restaurant", "check_date": "2024-03-04", "name": "Tommy's Joynt", "opening_hours": "Su-We 12:00-19:00; Th,Fr 12:00-24:00; Sa 13:00-24:00", "wheelchair": "yes"}}, {"type": "node", "id": 432817704, "lat": 37.783027, "lon": -122.4211055, "tags": {"addr:city": "San Francisco", "addr:housenumber": "801", "addr:street": "Van Ness Avenue", "amenity": "restaurant", "brand": "Round Table Pizza", "brand:wikidata": "Q7371139", "check_date": "2023-01-13", "cuisine": "pizza", "indoor_seating": "yes", "name": "Round Table Pizza", "opening_hours": "Su-Th 10:00-22:30; Fr,Sa 10:00-23:00", "outdoor_seating": "no", "source": "survey"}}, {"type": "node", "id": 432817745, "lat": 37.7830473, "lon": -122.420622, "tags": {"addr:city": "San Francisco", "addr:housenumber": "800", "addr:postcode": "94109", "addr:state": "CA", "addr:street": "Van Ness Avenue", "amenity": "restaurant", "cuisine": "sushi", "email": "info@ikeskitchensf.com", "indoor_seating": "yes", "name": "Ike's Kitchen", "old_name": "Sushi Hana", "opening_hours": "Mo-Th 11:00-14:30,17:00-21:30; Fr,Sa 11:00-14:30,17:00-22:30; Su 17:00-21:00", "opening_hours:url": "https://www.ikeskitchensf.com/contact", "outdoor_seating": "no", "phone": "+1 415 7755800", "takeaway": "yes", "website": "https://www.ikeskitchensf.com/"}}, {"type": "node", "id": 432823131, "lat": 37.7830769, "lon": -122.4203496, "tags": {"addr:city": "San Francisco", "addr:housenumber": "798", "addr:street": "Eddy Street", "amenity": "restaurant", "check_date": "2023-01-09", "name": "Pronto Pizza & Espresso", "phone": "+1 4159211999"}}, {"type": "node", "id": 529772421, "lat": 37.7763523, "lon": -122.4263728, "tags": {"addr:housenumber": "525", "addr:street": "Laguna Street", "amenity": "restaurant", "check_date": "2023-12-16", "contact:instagram": "https://www.instagram.com/suppenkuchesf", "cuisine": "german", "diet:vegetarian": "yes", "drink:beer": "yes", "name": "Suppenk\u00fcche", "name:de": "Suppenk\u00fcche", "outdoor_seating": "yes", "phone": "+1 415-252-9289", "website": "https://www.suppenkuche.com/", "wheelchair": "yes"}}, {"type": "node", "id": 529772489, "lat": 37.7765532, "lon": -122.4263948, "tags": {"addr:housenumber": "602", "addr:street": "Hayes Street", "amenity": "restaurant", "cuisine": "italian", "name": "Cafe Altano", "phone": "4152521200", "website": "http://cafealtanosf.com"}}, {"type": "node", "id": 647656706, "lat": 37.7710569, "lon": -122.432071, "tags": {"addr:city": "San Francisco", "addr:country": "US", "addr:housenumber": "201", "addr:postcode": "94117", "addr:state": "CA", "addr:street": "Steiner Street", "amenity": "cafe", "check_date": "2024-11-26", "cuisine": "sandwich;coffee_shop;salad;breakfast", "diet:vegan": "yes", "diet:vegetarian": "yes", "level": "0", "name": "Cafe R\u00e9veille", "opening_hours": "Mo-Su 07:00-19:30", "outdoor_seating": "yes", "phone": "+1 415-789-6258", "reservation": "no", "website": "https://www.cafereveille.com/lowerhaight", "wheelchair": "yes"}}, {"type": "node", "id": 647656754, "lat": 37.7720659, "lon": -122.4315927, "tags": {"addr:city": "San Francisco", "addr:housenumber": "568", "addr:postcode": "94117", "addr:street": "Haight Street", "amenity": "restaurant", "check_date": "2024-11-26", "cuisine": "italian", "diet:chicken": "yes", "diet:gluten_free": "yes", "diet:meat": "yes", "diet:non-vegetarian": "yes", "diet:vegetarian": "yes", "ethnicity": "italian", "level": "0", "name": "Uva Enoteca", "payment:cash": "yes", "payment:mastercard": "yes", "payment:visa": "yes", "website": "https://www.uvaenoteca.com/", "wheelchair": "yes"}}, {"type": "node", "id": 647656759, "lat": 37.7720798, "lon": -122.4298755, "tags": {"addr:city": "San Francisco", "addr:country": "US", "addr:housenumber": "471", "addr:postcode": "94117", "addr:state": "CA", "addr:street": "Haight Street", "amenity": "restaurant", "check_date": "2024-10-29", "cuisine": "breakfast", "name": "Kate's Kitchen", "opening_hours": "Mo 09:00-14:45; Tu-Fr 08:00-14:45; Sa-Su 08:30-15:45"}}, {"type": "node", "id": 647656762, "lat": 37.7722509, "lon": -122.4302258, "tags": {"addr:housenumber": "494", "addr:postcode": "94117", "addr:street": "Haight Street", "amenity": "restaurant", "check_date": "2024-11-16", "cuisine": "thai", "delivery": "yes", "ethnicity": "thai", "name": "House of Thai 2", "takeaway": "yes"}}, {"type": "node", "id": 647656785, "lat": 37.7721773, "lon": -122.4307315, "tags": {"addr:street": "Haight Street", "amenity": "cafe", "check_date": "2024-11-16", "diet:vegetarian": "yes", "level": "0", "name": "Cafe International", "undefined": "coffee_shop", "wheelchair": "yes"}}, {"type": "node", "id": 647656805, "lat": 37.7716958, "lon": -122.4305216, "tags": {"addr:city": "San Francisco", "addr:housenumber": "233", "addr:postcode": "94117", "addr:street": "Fillmore Street", "amenity": "restaurant", "check_date": "2024-12-26", "cuisine": "indian", "diet:vegan": "yes", "diet:vegetarian": "yes", "ethnicity": "indian", "level": "0", "name": "Indian Oven", "phone": "+1 415 6261628", "website": "https://indianovensf.com/", "wheelchair": "yes"}}, {"type": "node", "id": 647656809, "lat": 37.7712808, "lon": -122.4304316, "tags": {"addr:housenumber": "400", "addr:street": "Waller Street", "amenity": "restaurant", "name": "Le Cafe du Soleil"}}, {"type": "node", "id": 761407513, "lat": 37.7776362, "lon": -122.423882}, {"type": "node", "id": 761407514, "lat": 37.7776358, "lon": -122.4238468}, {"type": "node", "id": 761407515, "lat": 37.7776167, "lon": -122.4238275}, {"type": "node", "id": 1125115617, "lat": 37.7717943, "lon": -122.433921, "tags": {"addr:housenumber": "700", "addr:postcode": "94117", "addr:street": "Haight Street", "amenity": "cafe", "check_date": "2024-11-16", "contact:phone": "+1 415-896-4172", "contact:website": "https://palmyrasanfrancisco.com/", "cuisine": "mediterranean", "diet:vegan": "yes", "diet:vegetarian": "yes", "indoor_seating": "yes", "name": "Palmyra Restaurant", "outdoor_seating": "yes", "takeaway": "yes"}}, {"type": "node", "id": 1298685614, "lat": 37.7765452, "lon": -122.424782, "tags": {"addr:city": "San Francisco", "addr:housenumber": "501", "addr:postcode": "94102", "addr:state": "CA", "addr:street": "Hayes Street", "amenity": "restaurant", "name": "Hazie's", "opening_hours": "We-Th 16:00-24:00; Fr 11:30-02:00; Sa 11:00-02:00; Su 11:00-22:00", "outdoor_seating": "yes", "reservation": "yes", "wheelchair": "yes"}}, {"type": "node", "id": 1364959567, "lat": 37.7721664, "lon": -122.4308312, "tags": {"addr:housenumber": "518", "addr:postcode": "94117", "addr:street": "Haight Street", "amenity": "restaurant", "check_date": "2024-12-26", "cuisine": "japanese", "level": "0", "name": "Nara", "name:en": "Nara", "opening_hours": "Mo-Su 17:00-23:30", "phone": "+1 (415) 829-2491", "website": "https://www.naraonhaight.com", "wheelchair": "yes"}}, {"type": "node", "id": 1366261127, "lat": 37.7720398, "lon": -122.4319794, "tags": {"addr:housenumber": "598", "addr:street": "Haight Street", "amenity": "restaurant", "check_date": "2024-11-16", "name": "Dumpling Union", "note": "formerly rnm", "opening_hours": "Mo-Fr 11:30-15:00,17:00-21:00;Sa-Su 11:30-21:00", "wheelchair": "yes"}}, {"type": "node", "id": 1611963577, "lat": 37.7763548, "lon": -122.4242299}, {"type": "node", "id": 1611963578, "lat": 37.7763711, "lon": -122.4241021}, {"type": "node", "id": 1616343381, "lat": 37.7860357, "lon": -122.430023, "tags": {"addr:city": "San Francisco", "addr:housenumber": "1723", "addr:state": "CA", "addr:street": "Buchanan Street", "amenity": "restaurant", "cuisine": "korean", "diet:vegetarian": "yes", "name": "Doobu", "opening_hours": "Mo-Su 11:30-21:00", "opening_hours:url": "https://www.doobusf.com/", "phone": "+1 415 2926002", "website": "https://www.doobusf.com/", "website:menu": "https://www.doobusf.com/menus"}}, {"type": "node", "id": 1673952512, "lat": 37.7769221, "lon": -122.4319095, "tags": {"addr:housenumber": "803", "addr:postcode": "94115", "addr:street": "Fillmore Street", "amenity": "restaurant", "check_date": "2023-07-17", "cuisine": "fish", "diet:vegetarian": "no", "name": "Alamo Square Seafood Grill", "opening_hours": "17:30-21:00", "website": "http://alamosquareseafoodgrill.com"}}, {"type": "node", "id": 1840697756, "lat": 37.7858521, "lon": -122.4299995, "tags": {"amenity": "restaurant", "cuisine": "sushi", "name": "Kippu", "opening_hours": "Mo,We-Fr 11:00-21:00; Sa,Su 11:00-21:00; Tu off", "opening_hours:url": "https://www.kippusushi.com/", "phone": "+1 415 3461212", "website": "https://www.kippusushi.com/", "website:menu": "https://www.kippusushi.com/menu"}}, {"type": "node", "id": 1847720030, "lat": 37.7770034, "lon": -122.4380361, "tags": {"addr:housenumber": "800", "addr:street": "Divisadero Street", "amenity": "cafe", "check_date": "2023-01-22", "diet:vegan": "yes", "diet:vegetarian": "yes", "name": "Eddie's Cafe", "opening_hours": "Mo-Fr 07:30-14:30; Sa 07:30-15:00; Su 08:00-15:00"}}, {"type": "node", "id": 1932961723, "lat": 37.7767898, "lon": -122.4377229, "tags": {"addr:city": "San Francisco", "addr:country": "US", "addr:housenumber": "1279", "addr:postcode": "94117", "addr:state": "CA", "addr:street": "Fulton Street", "amenity": "restaurant", "check_date": "2023-01-21", "cuisine": "indian", "diet:vegan": "yes", "diet:vegetarian": "yes", "name": "Saffron Grill", "phone": "+1 415-567-5100", "website": "https://www.saffrongrillsf.com/"}}, {"type": "node", "id": 2005894112, "lat": 37.7702183, "lon": -122.4258504, "tags": {"addr:city": "San Francisco", "addr:country": "US", "addr:county": "San Francisco", "addr:housenumber": "1946", "addr:postcode": "94102", "addr:state": "CA", "addr:street": "Market Street", "amenity": "restaurant", "check_date": "2023-07-19", "cuisine": "sushi", "name": "Sushi Delight", "opening_hours": "Th-Mo 17:00-22:00"}}, {"type": "node", "id": 2248374010, "lat": 37.776403, "lon": -122.425796, "tags": {"addr:city": "San Francisco", "addr:housenumber": "579", "addr:postcode": "94102", "addr:state": "CA", "addr:street": "Hayes Street", "amenity": "restaurant", "check_date": "2023-10-28", "cuisine": "pizza", "name": "Giola Pizzeria", "opening_hours": "Mo-Su 11:00-22:00", "phone": "+1 415 872 9427", "website": "https://www.gioiapizzeria.com/"}}, {"type": "node", "id": 2375537105, "lat": 37.7815774, "lon": -122.4325389, "tags": {"addr:city": "San Francisco", "addr:housenumber": "1301", "addr:postcode": "94115", "addr:state": "CA", "addr:street": "Fillmore Street", "amenity": "cafe", "check_date": "2023-07-29", "name": "The Fillmore Street Cafe"}}, {"type": "node", "id": 2411698457, "lat": 37.7763144, "lon": -122.4232552, "tags": {"amenity": "cafe", "brand": "Blue Bottle Coffee", "brand:wikidata": "Q4928917", "cuisine": "coffee_shop", "internet_access": "no", "name": "Blue Bottle Coffee", "takeaway": "yes"}}, {"type": "node", "id": 2474058013, "lat": 37.7739857, "lon": -122.424226, "tags": {"addr:housenumber": "201", "addr:street": "Octavia Street", "amenity": "cafe", "check_date": "2024-08-01", "cuisine": "coffee_shop;sandwich", "internet_access": "wlan", "internet_access:fee": "no", "name": "Mercury Cafe", "opening_hours": "Mo-We 07:30-15:00; Th-Fr 07:30-16:00; Sa 08:00-16:00; Su 08:00-15:00", "outdoor_seating": "yes", "payment:mastercard": "yes", "payment:visa": "yes", "takeaway": "yes", "website": "https://www.mercurycafe.net/", "wheelchair": "limited"}}, {"type": "node", "id": 2474072786, "lat": 37.7769458, "lon": -122.421469, "tags": {"addr:city": "San Francisco", "addr:housenumber": "301", "addr:postcode": "94102", "addr:state": "CA", "addr:street": "Hayes Street", "amenity": "restaurant", "check_date": "2023-09-17", "diet:vegan": "only", "diet:vegetarian": "only", "indoor_seating": "yes", "name": "Rad Radish", "opening_hours": "Mo-Th 09:00-20:30; Fr 09:00-21:00; Sa 10:00-21:00; Su 10:00-20:30", "opening_hours:url": "https://www.eatradradish.com/", "outdoor_seating": "yes", "takeaway": "yes", "website": "https://www.eatradradish.com/", "wheelchair": "yes"}}, {"type": "node", "id": 2474072797, "lat": 37.7769407, "lon": -122.4216559, "tags": {"addr:city": "San Francisco", "addr:housenumber": "307", "addr:postcode": "94102", "addr:street": "Hayes Street", "amenity": "restaurant", "cuisine": "thai", "name": "Lers Ros", "opening_hours": "Mo-Su 11:00-15:00; Mo-Su 17:00-22:00", "phone": "+1 415 874 9661", "website": "https://lersros.com/"}}, {"type": "node", "id": 2479327597, "lat": 37.7776159, "lon": -122.4239025}, {"type": "node", "id": 2482675927, "lat": 37.7765368, "lon": -122.424902, "tags": {"addr:city": "San Francisco", "addr:housenumber": "511", "addr:postcode": "94102", "addr:street": "Hayes Street", "alt_name": "Patxi's Pizza - Hayes Valley", "amenity": "restaurant", "branch": "Hayes Valley", "contact:facebook": "https://facebook.com/patxispizza", "contact:instagram": "https://instagram.com/patxispizza", "contact:yelp": "https://yelp.com/biz/patxis-pizza-san-francisco-2", "cuisine": "pizza", "name": "Patxi's Pizza", "opening_hours": "Fr-Sa 11:00-23:00; Su-Th 11:00-22:00", "phone": "+1-415-588-9991", "pizza:style": "chicago;pan;neapolitan", "subject:wikidata": "Q7148797", "subject:wikipedia": "en:Patxi's Chicago Pizza", "website": "https://patxispizza.com/location/hayes-pizza", "wheelchair": "yes"}}, {"type": "node", "id": 2501316103, "lat": 37.7858321, "lon": -122.4287697, "tags": {"addr:city": "San Francisco", "addr:housenumber": "1638", "addr:postcode": "94115", "addr:street": "Post Street", "alt_name": "Ramen Dining Waraku", "amenity": "restaurant", "check_date": "2022-08-04", "contact:facebook": "warakusf", "contact:instagram": "ramen_waraku", "contact:yelp": "https://www.yelp.com/biz/waraku-san-francisco-2", "cuisine": "ramen", "diet:vegan": "no", "diet:vegetarian": "yes", "drink:beer": "yes", "drink:sake": "yes", "happy_hours": "Mo-Fr 17:00-19:00; Sa-Su 15:00-17:00", "indoor_seating": "yes", "name": "Waraku", "name:ja": "\u548c\u697d", "note:outdoor_seating": "There are two tables on the sidewalk outside, but it generally doesn't have outdoor seating.", "opening_hours": "Tu-Th 11:30-14:30,17:00-21:00; Fr 11:30-14:30,17:00-22:00; Sa 11:30-22:00; Su 11:30-21:00; Mo off", "opening_hours:url": "https://www.ramenwaraku.com/", "outdoor_seating": "limited", "phone": "+1 415 2923388", "website": "https://www.ramenwaraku.com/", "wheelchair": "yes"}}, {"type": "node", "id": 2540215559, "lat": 37.7776085, "lon": -122.4238262}, {"type": "node", "id": 2540215560, "lat": 37.7775798, "lon": -122.4238524}, {"type": "node", "id": 2540215561, "lat": 37.7775782, "lon": -122.4238646}, {"type": "node", "id": 2540215562, "lat": 37.7775796, "lon": -122.4238767}, {"type": "node", "id": 2540215563, "lat": 37.7775865, "lon": -122.4238924}, {"type": "node", "id": 2540215566, "lat": 37.7775841, "lon": -122.4238408}, {"type": "node", "id": 2540215567, "lat": 37.777595, "lon": -122.42383}, {"type": "node", "id": 2540215572, "lat": 37.7764133, "lon": -122.4242419}, {"type": "node", "id": 2540215573, "lat": 37.7764296, "lon": -122.4241139}, {"type": "node", "id": 2568383519, "lat": 37.7775987, "lon": -122.4239014}, {"type": "node", "id": 2568383520, "lat": 37.7776072, "lon": -122.4239035}, {"type": "node", "id": 2568383521, "lat": 37.7776242, "lon": -122.4238983}, {"type": "node", "id": 2568383523, "lat": 37.7776311, "lon": -122.4238912}, {"type": "node", "id": 2568383525, "lat": 37.777639, "lon": -122.4238704}, {"type": "node", "id": 2568383526, "lat": 37.7776389, "lon": -122.4238583}, {"type": "node", "id": 2568383528, "lat": 37.7776309, "lon": -122.4238382}, {"type": "node", "id": 2568383530, "lat": 37.7776244, "lon": -122.4238316}, {"type": "node", "id": 2623634611, "lat": 37.7734751, "lon": -122.4216946}, {"type": "node", "id": 2623634649, "lat": 37.7736552, "lon": -122.4217296}, {"type": "node", "id": 2623634654, "lat": 37.7736671, "lon": -122.4214473}, {"type": "node", "id": 2623634658, "lat": 37.7736884, "lon": -122.4214479}, {"type": "node", "id": 2652836518, "lat": 37.7857448, "lon": -122.4293419, "tags": {"amenity": "restaurant", "cuisine": "chinese", "level": "1", "name": "San Wang Restaurant", "name:ko": "\uc0b0\uc655\ubc18\uc810", "name:zh": "\u5c71\u738b\u98ef\u5e97"}}, {"type": "node", "id": 2669246260, "lat": 37.7748383, "lon": -122.4376477}, {"type": "node", "id": 2669246322, "lat": 37.7748766, "lon": -122.4373494}, {"type": "node", "id": 2669246392, "lat": 37.7749342, "lon": -122.4376675}, {"type": "node", "id": 2669246452, "lat": 37.7749726, "lon": -122.4373692}, {"type": "node", "id": 2688588377, "lat": 37.7853296, "lon": -122.4326755}, {"type": "node", "id": 2688588448, "lat": 37.7854425, "lon": -122.4326976}, {"type": "node", "id": 2688643735, "lat": 37.7852646, "lon": -122.4329926}, {"type": "node", "id": 2688643738, "lat": 37.785304, "lon": -122.4326705}, {"type": "node", "id": 2688643741, "lat": 37.7854189, "lon": -122.4330228}, {"type": "node", "id": 2688643744, "lat": 37.7854249, "lon": -122.4329739}, {"type": "node", "id": 2688643752, "lat": 37.7854527, "lon": -122.432747}, {"type": "node", "id": 2688643755, "lat": 37.7854584, "lon": -122.4327007}, {"type": "node", "id": 2688958326, "lat": 37.7870312, "lon": -122.434136}, {"type": "node", "id": 2688958332, "lat": 37.7870423, "lon": -122.4340486}, {"type": "node", "id": 2688958341, "lat": 37.7870501, "lon": -122.4341399}, {"type": "node", "id": 2688958455, "lat": 37.7872307, "lon": -122.4341765}, {"type": "node", "id": 2688958466, "lat": 37.7872461, "lon": -122.4341796}, {"type": "node", "id": 2688958494, "lat": 37.7873608, "lon": -122.4342029}, {"type": "node", "id": 2688958496, "lat": 37.7873766, "lon": -122.4342061}, {"type": "node", "id": 2688958497, "lat": 37.7873877, "lon": -122.4341187}, {"type": "node", "id": 2718062344, "lat": 37.7719259, "lon": -122.430317, "tags": {"addr:housenumber": "254", "addr:street": "Fillmore Street", "amenity": "cafe", "check_date": "2024-12-26", "cuisine": "coffee_shop", "diet:vegan": "yes", "diet:vegetarian": "yes", "name": "Coffee Out There", "opening_hours": "Mo-Su 11:00-19:30", "start_date": "2018"}}, {"type": "node", "id": 2786939583, "lat": 37.7764572, "lon": -122.4379121, "tags": {"addr:city": "San Francisco", "addr:housenumber": "736", "addr:postcode": "94117", "addr:street": "Divisadero Street", "amenity": "cafe", "check_date": "2023-01-22", "cuisine": "coffee_shop", "diet:gluten_free": "yes", "diet:lactose_free": "yes", "gluten_free": "yes", "internet_access": "no", "name": "The Mill", "opening_hours": "Mo 07:00-21:00, Tu-Su 07:00-19:00", "shop": "bakery", "toilets:access": "public", "toilets:changing_table": "yes", "toilets:female": "yes", "toilets:gender_segregated": "no", "toilets:male": "yes", "toilets:num_chambers": "1", "toilets:unisex": "yes", "website": "http://themillsf.com/"}}, {"type": "node", "id": 2819234080, "lat": 37.7712208, "lon": -122.4238831, "tags": {"amenity": "restaurant", "cuisine": "sushi", "name": "Sushi Zone"}}, {"type": "node", "id": 2895323815, "lat": 37.7752166, "lon": -122.4195185, "tags": {"addr:housenumber": "1500", "addr:postcode": "94102", "addr:street": "Market Street", "amenity": "cafe", "check_date": "2024-11-16", "indoor_seating": "no", "name": "All Star Cafe", "opening_hours": "24/7", "outdoor_seating": "no", "phone": "+1 4152529888", "takeaway": "only"}}, {"type": "node", "id": 2923566774, "lat": 37.7735226, "lon": -122.4217032}, {"type": "node", "id": 2923566782, "lat": 37.7736046, "lon": -122.4217195}, {"type": "node", "id": 2937336925, "lat": 37.7771407, "lon": -122.421869, "tags": {"addr:housenumber": "320", "amenity": "restaurant", "name": "Hayes Street Grill", "opening_hours": "Th-Sa 11:30-14:30,17:00-21:00; Su 12:00-18:00; Mo-We 17:00-21:00 open \"on symphony/opera house performance nights only\"", "phone": "+1 415-863-5545", "website": "https://www.hayesstreetgrill.com/"}}, {"type": "node", "id": 3317120154, "lat": 37.777038, "lon": -122.422855, "tags": {"addr:city": "San Francisco", "addr:housenumber": "398", "addr:postcode": "94102", "addr:state": "CA", "addr:street": "Hayes Street", "amenity": "restaurant", "check_date": "2023-05-18", "cocktails": "yes", "contact:facebook": "AbsintheBrasserie", "contact:instagram": "absinthesf", "cuisine": "french;american", "drink:beer": "yes", "drink:wine": "yes", "email": "talk@absinthe.com", "indoor_seating": "yes", "name": "Absinthe Brasserie & Bar", "name:zh": "\u82e6\u827e\u9152\u9910\u5385", "opening_hours": "We-Sa 11:30-22:00,Su 11:00-21:00", "opening_hours:url": "https://www.absinthe.com/", "outdoor_seating": "yes", "payment:mastercard": "yes", "payment:visa": "yes", "phone": "+1 415-551-1590", "reservation": "yes", "website": "https://www.absinthe.com/", "website:menu": "https://www.absinthe.com/menus/", "wheelchair": "yes"}}, {"type": "node", "id": 3317123885, "lat": 37.776777, "lon": -122.424779, "tags": {"addr:city": "San Francisco", "addr:housenumber": "500", "addr:postcode": "94102", "addr:state": "CA", "addr:street": "Hayes Street", "amenity": "cafe", "cuisine": "french", "email": "hayes@laboulangeriesf.com", "name": "La Boulangerie", "opening_hours": "07:30-15:30", "outdoor_seating": "yes", "phone": "+1 415-400-4451", "takeaway": "yes", "website": "https://www.laboulangeriesf.com"}}, {"type": "node", "id": 3321734312, "lat": 37.7760172, "lon": -122.4314951, "tags": {"amenity": "cafe", "name": "Alamo Square Cafe"}}, {"type": "node", "id": 3397732377, "lat": 37.7824007, "lon": -122.4204903, "tags": {"addr:city": "San Francisco", "addr:housenumber": "748", "addr:state": "CA", "addr:street": "Van Ness Avenue", "amenity": "restaurant", "cuisine": "sandwich", "drink:coffee": "yes", "email": "saltyssf@gmail.com", "name": "Salty's", "opening_hours": "Mo-Fr 7:00-14:30; Sa,Su off", "opening_hours:url": "https://www.saltysf.com/", "phone": "+1 415 4004180", "website": "https://www.saltysf.com/"}}, {"type": "node", "id": 3458525148, "lat": 37.7765, "lon": -122.4249614, "tags": {"amenity": "restaurant", "check_date": "2022-11-13", "cuisine": "greek", "name": "Souvla"}}, {"type": "node", "id": 3873879797, "lat": 37.7769839, "lon": -122.4231512, "tags": {"addr:housenumber": "401", "addr:street": "Gough Street", "amenity": "restaurant", "check_date": "2023-01-05", "cuisine": "american;french", "name": "Chez Maman", "opening_hours": "Mo-Fr 11:30-22:00; Sa, Su 10:30-22:00", "outdoor_seating": "yes", "phone": "+1 415-355-9067", "takeaway": "yes", "website": "http://www.chezmamansf.com/", "wheelchair": "yes"}}, {"type": "node", "id": 3883601143, "lat": 37.7717833, "lon": -122.4305235, "tags": {"addr:city": "San Francisco", "addr:housenumber": "237", "addr:postcode": "94117", "addr:state": "CA", "addr:street": "Fillmore Street", "amenity": "restaurant", "check_date": "2023-02-06", "contact:facebook": "izaramen", "contact:instagram": "izaramensf", "contact:yelp": "https://www.yelp.com/biz/iza-ramen-lower-haight-san-francisco", "cuisine": "ramen", "name": "Iza Ramen", "opening_hours": "Mo-Su 17:30-22:00", "opening_hours:url": "https://www.izaramen.com/", "phone": "+1 415 9268173", "reservation": "no", "website": "https://www.izaramen.com/", "website:menu": "https://www.izaramen.com/fillmore", "wheelchair": "yes"}}, {"type": "node", "id": 4004977092, "lat": 37.776796, "lon": -122.4227676, "tags": {"addr:city": "San Francisco", "addr:housenumber": "395", "addr:postcode": "94102", "addr:state": "CA", "addr:street": "Hayes Street", "amenity": "restaurant", "check_date": "2023-05-18", "cuisine": "italian;pizza", "name": "Doppio Zero", "opening_hours": "Mo-Fr 11:00-14:30; Mo-Th 17:00-22:00; Fr 17:00-23:00; Sa 11:30-23:00; Su 11:30-22:00", "payment:mastercard": "yes", "payment:visa": "yes", "phone": "415 624 3634", "website": "https://dzpizzeria.com/dz-san-francisco/"}}, {"type": "node", "id": 4030526213, "lat": 37.771413, "lon": -122.4350931, "tags": {"addr:housenumber": "783", "addr:street": "Haight Street", "amenity": "cafe", "check_date": "2023-02-06", "diet:vegan": "yes", "diet:vegetarian": "yes", "internet_access": "wlan", "name": "The Grind Cafe", "outdoor_seating": "yes"}}, {"type": "node", "id": 4030526512, "lat": 37.7718314, "lon": -122.433449, "tags": {"addr:city": "San Francisco", "addr:housenumber": "682", "addr:postcode": "94117", "addr:state": "CA", "addr:street": "Haight Street", "amenity": "restaurant", "check_date": "2024-11-16", "cuisine": "mexican", "diet:vegan": "no", "diet:vegetarian": "yes", "email": "info@otrasf.com", "indoor_seating": "yes", "name": "Otra", "opening_hours": "Mo-Fr,Sa 10:30-15:00,16:30-22:00; Su 10:30-15:00,16:30-21:30", "opening_hours:url": "https://www.otrasf.com/", "outdoor_seating": "yes", "phone": "+1 415 5002774", "website": "https://www.otrasf.com/", "website:menu": "https://www.otrasf.com/general-2", "wheelchair": "yes"}}, {"type": "node", "id": 4037728128, "lat": 37.7733029, "lon": -122.4221062, "tags": {"addr:city": "San Francisco", "addr:housenumber": "1686", "addr:postcode": "94102", "addr:street": "Market Street", "amenity": "restaurant", "cuisine": "brazilian", "diet:vegetarian": "no", "name": "Espetus Churrascaria", "opening_hours": "Mo-Fr 11:30-14:30; Sa 12:00-15:00; Mo-Th 17:00-22:00; Fr-Sa 17:00-23:00; Su 12:00-21:00", "outdoor_seating": "yes", "phone": "+1 415-552-8792", "website": "https://www.espetus.com/"}}, {"type": "node", "id": 4055719117, "lat": 37.7726374, "lon": -122.4221049, "tags": {"addr:city": "San Francisco", "addr:housenumber": "1695", "addr:postcode": "94103", "addr:state": "CA", "addr:street": "Market Street", "amenity": "restaurant", "check_date": "2024-10-29", "cuisine": "sushi", "name": "Rocket Sushi", "phone": "+1 415-872-9368", "takeaway": "yes"}}, {"type": "node", "id": 4081574783, "lat": 37.7779408, "lon": -122.4233553, "tags": {"addr:city": "San Francisco", "addr:housenumber": "400", "addr:postcode": "94102", "addr:state": "CA", "addr:street": "Grove Street", "amenity": "restaurant", "brand": "Elephant Sushi", "check_date": "2024-12-09", "cuisine": "sushi", "name": "Elephant Sushi", "wheelchair": "yes"}}, {"type": "node", "id": 4226101094, "lat": 37.7857522, "lon": -122.4350453, "tags": {"addr:city": "San Francisco", "addr:housenumber": "2101", "addr:postcode": "94115", "addr:state": "CA", "addr:street": "Sutter Street", "amenity": "restaurant", "check_date": "2023-02-17", "contact:facebook": "SweetMapleSF", "contact:instagram": "sweetmapleofficial", "cuisine": "breakfast;panini", "diet:vegan": "no", "diet:vegetarian": "yes", "email": "eat@sweetmaplesf.com", "level": "0", "name": "Sweet Maple", "opening_hours": "Mo-Fr 08:00-14:30; Sa-Su 08:00-15:00", "opening_hours:url": "https://www.sweetmaplesf.com/locations/", "phone": "+1 415 6559169", "reservation": "no", "website": "https://www.sweetmaplesf.com/", "wheelchair": "yes"}}, {"type": "node", "id": 4259744393, "lat": 37.7756335, "lon": -122.426267, "tags": {"addr:housenumber": "500", "addr:street": "Fell Street", "amenity": "restaurant", "check_date": "2023-10-28", "cuisine": "italian", "name": "Il Borgo"}}, {"type": "node", "id": 4259746695, "lat": 37.7819078, "lon": -122.4325774, "tags": {"addr:city": "San Francisco", "addr:housenumber": "1325", "addr:postcode": "94115", "addr:state": "CA", "addr:street": "Fillmore Street", "amenity": "restaurant", "cuisine": "seafood", "diet:vegan": "yes", "diet:vegetarian": "yes", "name": "Scott's Chowder House", "opening_hours": "Tu-Sa 16:00-22:00"}}, {"type": "node", "id": 4340535594, "lat": 37.7745253, "lon": -122.4306476, "tags": {"addr:housenumber": "548", "addr:street": "Fillmore Street", "amenity": "cafe", "check_date": "2024-11-17", "cuisine": "tea", "name": "The Center SF Tea House", "opening_hours": "Tu-Su 14:00-22:00"}}, {"type": "node", "id": 4436673798, "lat": 37.7837055, "lon": -122.4329482, "tags": {"addr:housenumber": "1529", "addr:postcode": "94115", "addr:street": "Fillmore Street", "amenity": "restaurant", "check_date": "2022-07-19", "cuisine": "american;tapas", "name": "State Bird Provisions", "phone": "+1 415-795-1272", "website": "https://statebirdsf.com/"}}, {"type": "node", "id": 4482438889, "lat": 37.7769616, "lon": -122.423263, "tags": {"addr:city": "San Francisco", "addr:housenumber": "406", "addr:postcode": "94102", "addr:state": "CA", "addr:street": "Hayes Street", "amenity": "restaurant", "check_date": "2023-01-05", "name": "The Bird", "opening_hours": "Mo-Th, Su 11:00-20:30; Fr, Sa 11:00-21:30", "takeaway": "yes", "website": "https://www.thebirdsf.com/", "wheelchair": "yes"}}, {"type": "node", "id": 4527812889, "lat": 37.7873439, "lon": -122.4336925, "tags": {"addr:housenumber": "1911", "addr:street": "Fillmore Street", "amenity": "restaurant", "cuisine": "italian", "name": "SPQR"}}, {"type": "node", "id": 4531532689, "lat": 37.7836558, "lon": -122.4329391, "tags": {"addr:housenumber": "1525", "addr:postcode": "95115", "addr:street": "Fillmore Street", "amenity": "restaurant", "check_date": "2022-07-19", "cuisine": "american", "name": "Progress", "phone": "+1 415-673-1294", "website": "https://theprogress-sf.com/"}}, {"type": "node", "id": 4534900789, "lat": 37.7748889, "lon": -122.4227248, "tags": {"addr:city": "San Francisco", "addr:housenumber": "199", "addr:postcode": "94102", "addr:state": "CA", "addr:street": "Gough Street", "amenity": "restaurant", "cuisine": "italian", "name": "Rich Table", "opening_hours": "Tu-Sa 17:00-21:45", "outdoor_seating": "yes", "phone": "+1 415-355-9085", "website": "https://www.richtablesf.com/"}}, {"type": "node", "id": 4567603390, "lat": 37.7817834, "lon": -122.420859, "tags": {"addr:city": "San Francisco", "addr:housenumber": "601", "addr:postcode": "94102", "addr:state": "CA", "addr:street": "Van Ness Avenue", "amenity": "cafe", "brand": "Peet's Coffee", "brand:wikidata": "Q1094101", "check_date:opening_hours": "2024-03-30", "cuisine": "coffee_shop", "indoor_seating": "yes", "name": "Peet's Coffee", "opening_hours": "Mo-Fr 05:30-18:00; Sa,Su 06:00-17:00", "opening_hours:url": "https://locations.peets.com/ll/US/CA/San-Francisco/601-Van-Ness", "outdoor_seating": "no", "phone": "+1 415 593 2661", "takeaway": "yes", "website": "https://locations.peets.com/ll/US/CA/San-Francisco/601-Van-Ness", "wheelchair": "yes"}}, {"type": "node", "id": 4596850006, "lat": 37.7851115, "lon": -122.431836, "tags": {"amenity": "restaurant", "cuisine": "japanese", "level": "0", "name": "Suzu Noodle House", "opening_hours": "Mo-Th 11:30-19:30; Fr-Su 11:30-21:00"}}, {"type": "node", "id": 4624048552, "lat": 37.7787469, "lon": -122.4222486, "tags": {"addr:city": "San Francisco", "addr:housenumber": "333", "addr:postcode": "94102", "addr:state": "CA", "addr:street": "Fulton Street", "amenity": "restaurant", "cuisine": "scandinavian", "name": "Plaj", "opening_hours": "Su-We 05:00-21:00; Th 05:00-22:00; Fr-Sa 05:00-23:00"}}, {"type": "node", "id": 4628526088, "lat": 37.7853142, "lon": -122.430535, "tags": {"amenity": "restaurant", "brand": "Benihana", "brand:wikidata": "Q4887996", "cuisine": "japanese;teppanyaki;steak", "level": "1", "name": "Benihana", "opening_hours": "Mo-Th 11:30-22:00; Fr 11:30-23:00; Sa 12:00-23:00; Su 12:00-22:00", "operator": "japanese"}}, {"type": "node", "id": 4628529933, "lat": 37.7856066, "lon": -122.4304623, "tags": {"addr:city": "San Francisco", "addr:housenumber": "1734", "addr:state": "CA", "addr:street": "Post Street", "amenity": "restaurant", "contact:facebook": "hikarisushi.sf", "contact:instagram": "hikarisushi_sf", "cuisine": "sushi;japanese", "email": "hikari1734@gmail.com", "name": "Hikari", "opening_hours": "Su,Mo-Th 11:30-20:30; Fr,Sa 11:30-21:00", "phone": "+1 415 8729116", "url": "https://www.hikarisushi.info/", "website": "https://www.hikarisushibarsf.com/"}}, {"type": "node", "id": 4628566830, "lat": 37.7856554, "lon": -122.4300443, "tags": {"addr:city": "San Francisco", "addr:housenumber": "1702", "addr:state": "CA", "addr:street": "Post Street", "amenity": "restaurant", "check_date": "2021-08-06", "cuisine": "sushi;japanese", "level": "1", "name": "Sanppo Sushi", "opening_hours": "Mo-Th 11:30-24:00; Fr,Sa 11:30-25:00; Su 12:00-22:00", "opening_hours:url": "http://sanpposushisf.com/", "phone": "+1 415 3463486", "website": "http://sanpposushisf.com"}}, {"type": "node", "id": 4628585777, "lat": 37.7858123, "lon": -122.4288488, "tags": {"addr:housenumber": "1640", "addr:street": "Post Street", "amenity": "restaurant", "cuisine": "korean;barbecue", "description": "All-you-can-eat Korean BBQ", "name": "YakiniQ", "opening_hours": "Mo-Th 17:00-21:30; Fr 17:00-22:00; Sa,Su 16:30-22:00", "opening_hours:signed": "yes"}}, {"type": "node", "id": 4628592614, "lat": 37.7858503, "lon": -122.4285398, "tags": {"addr:housenumber": "1620", "addr:street": "Post Street", "amenity": "restaurant", "bar": "no", "capacity": "72", "check_date": "2024-08-06", "contact:instagram": "https://www.instagram.com/daeho_official", "cuisine": "korean", "description": "Korean BBQ and beef soup", "drink:beer": "yes", "drink:soju": "yes", "internet_access": "no", "name": "Daeho", "name:ko": "\ub300\ud638", "name:ko-Hani": "\u5927\u864e", "outdoor_seating": "no", "payment:credit_cards": "yes", "phone": "+1 415-563-1388", "reservation": "no", "website": "https://daehokalbijjim.com/", "website:menu": "https://qrco.de/bd2Sah", "wheelchair": "yes"}}, {"type": "node", "id": 4628749771, "lat": 37.7853273, "lon": -122.4291779}, {"type": "node", "id": 4865456121, "lat": 37.7768809, "lon": -122.4239665, "tags": {"addr:housenumber": "450", "addr:street": "Hayes Street", "amenity": "restaurant", "check_date": "2023-01-05", "cuisine": "italian_pizza", "name": "a Mano", "outdoor_seating": "yes"}}, {"type": "node", "id": 4881044837, "lat": 37.7721973, "lon": -122.430611, "tags": {"addr:city": "San Francisco", "addr:housenumber": "500", "addr:postcode": "94117", "addr:state": "CA", "addr:street": "Haight Street", "amenity": "restaurant", "check_date": "2024-11-16", "contact:facebook": "yh-beijing", "contact:instagram": "yh_beijing", "contact:yelp": "https://www.yelp.com/biz/w6Rqt5gdNHl18wpxGuYnaQ", "cuisine": "chinese", "name": "YH-Beijing", "name:en": "YH-Beijing", "name:zh": "\u9823\u548c\u5317\u4eac", "old_name": "Wonderland", "opening_hours": "Mo-Fr 11:00-14:30,16:30-21:30; Sa-Su 11:00-21:30", "opening_hours:url": "https://yh-beijing.com/", "phone": "+1 415 3559125;+1 415 3559132;+1 415 3559137", "website": "https://yh-beijing.com/", "website:menu": "https://yh-beijing.com/menu"}}, {"type": "node", "id": 4884686006, "lat": 37.772392, "lon": -122.428949, "tags": {"addr:city": "San Francisco", "addr:housenumber": "400", "addr:postcode": "94117", "addr:state": "CA", "addr:street": "Haight Street", "amenity": "restaurant", "check_date": "2022-09-25", "contact:facebook": "kibatsusf", "contact:instagram": "kibatsusf", "cuisine": "sushi", "fax": "+1 415 872 9637", "name": "Kibatsu", "phone": "+1 415 872 9636", "reservation": "yes", "website": "https://www.kibatsusushi.com/", "website:menu": "https://www.kibatsusushi.com/menu"}}, {"type": "node", "id": 4894498742, "lat": 37.7719541, "lon": -122.4308784, "tags": {"addr:housenumber": "525", "addr:street": "Haight Street", "amenity": "restaurant", "check_date": "2023-02-06", "cuisine": "vietnamese", "name": "Perilla", "phone": "415 8726718"}}, {"type": "node", "id": 4894498743, "lat": 37.7719426, "lon": -122.4309795, "tags": {"addr:housenumber": "531", "addr:street": "Haight Street", "amenity": "restaurant", "check_date": "2024-12-26", "cuisine": "japanese", "diet:fish": "yes", "diet:vegan": "yes", "diet:vegetarian": "yes", "level": "0", "name": "Hot Zushi", "wheelchair": "yes"}}, {"type": "node", "id": 4894498744, "lat": 37.771936, "lon": -122.4310206, "tags": {"addr:housenumber": "533", "addr:street": "Haight Street", "amenity": "restaurant", "check_date": "2024-12-26", "cuisine": "mexican", "level": "0", "name": "Taquer\u00eda Estrella", "phone": "+1 415-861-1455", "wheelchair": "yes"}}, {"type": "node", "id": 5180870589, "lat": 37.7719701, "lon": -122.4307952, "tags": {"addr:city": "San Francisco", "addr:housenumber": "509", "addr:postcode": "94117", "addr:state": "CA", "addr:street": "Haight Street", "amenity": "restaurant", "check_date": "2024-12-26", "cuisine": "korean", "diet:vegan": "yes", "diet:vegetarian": "yes", "level": "0", "name": "Purple Rice", "phone": "+1 415-932-6257", "wheelchair": "yes"}}, {"type": "node", "id": 5180870595, "lat": 37.7713117, "lon": -122.4301572, "tags": {"addr:housenumber": "200", "addr:street": "Fillmore Street", "amenity": "restaurant", "check_date": "2023-02-06", "name": "Tarragon Cafe"}}, {"type": "node", "id": 5182461987, "lat": 37.7722801, "lon": -122.4298226, "tags": {"addr:housenumber": "466", "addr:postcode": "94117", "addr:street": "Haight Street", "amenity": "restaurant", "check_date": "2023-04-30", "name": "Nickie's Bar and Restaurant"}}, {"type": "node", "id": 5182462002, "lat": 37.7722572, "lon": -122.4301679, "tags": {"addr:city": "San Francisco", "addr:housenumber": "488", "addr:postcode": "94117", "addr:state": "CA", "addr:street": "Haight Street", "amenity": "restaurant", "cuisine": "mexican;salvadoran", "name": "Paula's Cafe", "old_name": "Emanuel Coffee", "opening_hours": "Su-Th 09:00-15:30; Fr,Sa 09:00-17:30", "opening_hours:url": "https://www.paulascafesf.com/", "phone": "+1 415 865 0522", "website": "https://www.paulascafesf.com/", "website:menu": "https://www.paulascafesf.com/menu"}}, {"type": "node", "id": 5276121818, "lat": 37.7821178, "lon": -122.4326173, "tags": {"addr:city": "San Francisco", "addr:housenumber": "1375", "addr:postcode": "94115", "addr:state": "CA", "addr:street": "Fillmore Street", "amenity": "restaurant", "name": "Bruno's Pizzeria"}}, {"type": "node", "id": 5276126258, "lat": 37.7824229, "lon": -122.4326763, "tags": {"addr:city": "San Francisco", "addr:housenumber": "1401", "addr:postcode": "94115", "addr:state": "CA", "addr:street": "Fillmore Street", "amenity": "restaurant", "check_date": "2023-04-08", "cuisine": "japanese", "name": "Happy Shabu Shabu"}}, {"type": "node", "id": 5276126259, "lat": 37.7829192, "lon": -122.4327752, "tags": {"addr:city": "San Francisco", "addr:housenumber": "1419", "addr:postcode": "94115", "addr:state": "CA", "addr:street": "Fillmore Street", "amenity": "restaurant", "cocktails": "yes", "contact:facebook": "ShebaPianoLounge", "contact:yelp": "http://www.yelp.com/biz/sheba-piano-lounge-san-francisco", "cuisine": "ethiopian", "diet:vegetarian": "yes", "drink:beer": "yes", "drink:whisky": "yes", "drink:wine": "yes", "live_music": "yes", "music": "live", "name": "Sheba Piano Lounge", "opening_hours": "Fr,Sa 17:00-23:00; We,Th,Su 17:00-23:00; Mo,Tu off", "opening_hours:url": "https://www.shebapianolounge.com/", "phone": "+1 415 4407414", "website": "https://www.shebapianolounge.com/", "website:calendar": "https://www.shebapianolounge.com/entertainment"}}, {"type": "node", "id": 5312617670, "lat": 37.7836659, "lon": -122.4326321, "tags": {"addr:city": "San Francisco", "addr:housenumber": "1522", "addr:postcode": "94115", "addr:state": "CA", "addr:street": "Fillmore Street", "amenity": "cafe", "cuisine": "bubble_tea", "delivery": "yes", "name": "Boba Guys", "opening_hours": "Mo-Th 11:00-21:00, Fr-Sa 12:00-23:00, Su 12:00-18:00", "outdoor_seating": "no", "payment:credit_cards": "yes", "takeaway": "yes", "website": "https://www.bobaguys.com/", "wheelchair": "yes"}}, {"type": "node", "id": 5315167594, "lat": 37.7850886, "lon": -122.4323932, "tags": {"addr:city": "San Francisco", "addr:housenumber": "1865", "addr:postcode": "94115", "addr:street": "Post Street", "amenity": "restaurant", "contact:facebook": "PainaSF", "contact:instagram": "PAINASF", "contact:twitter": "PAINASF", "cuisine": "hawaiian", "email": "painalounge@gmail.com", "name": "Pa'ina", "opening_hours": "Tu-Sa 17:00-22:00; Su 12:00-20:00; Mo off", "phone": "+1 415 8292642", "website": "https://www.painasf.com/"}}, {"type": "node", "id": 5315466474, "lat": 37.7858012, "lon": -122.4330789, "tags": {"addr:city": "San Francisco", "addr:housenumber": "1740", "addr:postcode": "94115", "addr:street": "Fillmore Street", "amenity": "restaurant", "check_date": "2024-11-21", "cuisine": "indian", "name": "Royal Indian Cuisine", "phone": "+1 415-567-7789", "website": "https://royalindiancusine.com/"}}, {"type": "node", "id": 5497161847, "lat": 37.7768124, "lon": -122.4214411, "tags": {"addr:city": "San Francisco", "addr:housenumber": "231", "addr:state": "CA", "addr:street": "Franklin Street", "amenity": "restaurant", "check_date": "2023-01-05", "contact:instagram": "nojoramen", "contact:yelp": "https://www.yelp.com/biz/nojo-ramen-tavern-san-francisco-6", "cuisine": "japanese;ramen", "diet:vegetarian": "yes", "indoor_seating": "yes", "name": "Nojo Ramen Tavern", "note": "Website refers to Yelp for opening hours", "opening_hours": "Tu-Th 17:00-21:00; Fr 17:00-21:30; Sa 11:30-14:30,17:00-21:30; Su 11:30-14:30,16:00-20:00; Mo off", "opening_hours:url": "https://www.yelp.com/biz/nojo-ramen-tavern-san-francisco-6", "outdoor_seating": "yes", "website": "https://nojosframen.com/", "wheelchair": "yes"}}, {"type": "node", "id": 5612914330, "lat": 37.7829105, "lon": -122.4316718, "tags": {"addr:city": "San Francisco", "addr:housenumber": "1335", "addr:postcode": "94115", "addr:state": "CA", "addr:street": "Webster Street", "amenity": "cafe", "branch": "Safeway San Francisco 995", "brand": "Starbucks", "brand:wikidata": "Q37158", "cuisine": "coffee_shop", "name": "Starbucks", "official_name": "Starbucks Coffee", "phone": "+1 415-921-4557", "ref": "7701", "takeaway": "yes", "website": "https://www.starbucks.com/store-locator/store/7701/safeway-san-francisco-995-1335-webster-san-francisco-ca-941154277-us"}}, {"type": "node", "id": 5629115521, "lat": 37.7855331, "lon": -122.4350149, "tags": {"amenity": "cafe", "check_date": "2023-07-29", "name": "Caf\u00e8 Murano"}}, {"type": "node", "id": 5981724023, "lat": 37.7859744, "lon": -122.4350773, "tags": {"addr:housenumber": "2100", "addr:street": "Sutter Street", "amenity": "restaurant", "check_date": "2023-02-17", "cuisine": "thai", "name": "Sweet Lime"}}, {"type": "node", "id": 6177260823, "lat": 37.7743924, "lon": -122.4209413, "tags": {"addr:housenumber": "1", "addr:street": "Franklin Street", "amenity": "restaurant", "check_date": "2023-05-23", "cuisine": "italian", "name": "The Italian Homemade Company", "opening_hours": "Mo-Su 11:00-21:00", "payment:mastercard": "yes", "payment:visa": "yes", "phone": "415-757-0877", "website": "https://italianhomemade.com/", "wheelchair": "yes"}}, {"type": "node", "id": 6314144257, "lat": 37.7834918, "lon": -122.4329092, "tags": {"addr:city": "San Francisco", "addr:housenumber": "1515", "addr:postcode": "94115", "addr:state": "CA", "addr:street": "Fillmore Street", "amenity": "restaurant", "cuisine": "poke", "level": "0", "name": "I'a Poke", "opening_hours": "Mo-Sa 11:30-20:30, Su 11:30-19:00", "outdoor_seating": "no", "phone": "+1 415-923-8151", "takeaway": "yes", "website": "https://www.iapoke.com/"}}, {"type": "node", "id": 6314144277, "lat": 37.7837256, "lon": -122.4326455, "tags": {"addr:city": "San Francisco", "addr:housenumber": "1526", "addr:postcode": "94115", "addr:state": "CA", "addr:street": "Fillmore Street", "amenity": "pub", "check_date": "2023-07-29", "drink:byob": "yes", "name": "Fillmore Billiards", "phone": "+1-415-673-3514", "sport": "billiards"}}, {"type": "node", "id": 6388316585, "lat": 37.7750961, "lon": -122.4210838, "tags": {"addr:housenumber": "101", "addr:street": "Oak Street", "amenity": "restaurant", "check_date": "2023-01-05", "name": "RT Rotisserie", "opening_hours": "Mo-Su 11:00-20:00", "website": "https://www.rtrotisserie.com/"}}, {"type": "node", "id": 6604031901, "lat": 37.776532, "lon": -122.419284, "tags": {"addr:city": "San Francisco", "addr:housenumber": "100", "addr:postcode": "94102", "addr:state": "CA", "addr:street": "Van Ness Avenue", "amenity": "restaurant", "check_date": "2023-01-05", "name": "The Madrigal", "opening_hours": "Tu-Sa 17:00-00:00", "phone": "+1 415-796-2531", "reservation": "yes", "website": "https://www.themadrigalsf.com/"}}, {"type": "node", "id": 6655857285, "lat": 37.7874727, "lon": -122.433392, "tags": {"addr:housenumber": "1914", "addr:street": "Fillmore Street", "amenity": "restaurant", "name": "W", "name:en": "Woodhouse Fish Co."}}, {"type": "node", "id": 6693595721, "lat": 37.7851604, "lon": -122.4290741}, {"type": "node", "id": 6693595726, "lat": 37.7851455, "lon": -122.4293509}, {"type": "node", "id": 6693595730, "lat": 37.7854011, "lon": -122.4294086}, {"type": "node", "id": 6693680666, "lat": 37.7866369, "lon": -122.4301609, "tags": {"amenity": "restaurant", "cuisine": "japanese", "name": "Mums Restaurant"}}, {"type": "node", "id": 6693680673, "lat": 37.7869313, "lon": -122.429946, "tags": {"addr:city": "San Francisco", "addr:housenumber": "1826", "addr:postcode": "94105", "addr:state": "CA", "addr:street": "Buchanan Street", "air_conditioning": "yes", "amenity": "restaurant", "check_date": "2024-02-20", "cuisine": "thai;curry;asian", "delivery": "yes", "diet:healthy": "yes", "diet:local": "yes", "diet:meat": "yes", "diet:nut_free": "yes", "diet:pescetarian": "yes", "diet:vegan": "yes", "diet:vegetarian": "yes", "name": "BANGKOK STREET Thai Street Food", "opening_hours": "Tu-Su 11:30-21:00", "phone": "+1 415 292 9027", "website": "https://www.bangkokstreetsf.com/"}}, {"type": "node", "id": 6835893289, "lat": 37.7772783, "lon": -122.4232119, "tags": {"addr:city": "San Francisco", "addr:housenumber": "429", "addr:postcode": "94102", "addr:state": "CA", "addr:street": "Gough Street", "amenity": "restaurant", "cuisine": "sushi;japanese", "name": "Tsubasa Sushi", "opening_hours": "Tu-Th 17:30-22:00; Fr,Sa 17:30-22:30; Su 17:30-21:30", "phone": "+1-415-551-9688"}}, {"type": "node", "id": 6835899035, "lat": 37.7774418, "lon": -122.4380351, "tags": {"addr:city": "San Francisco", "addr:housenumber": "838", "addr:postcode": "94117", "addr:state": "CA", "addr:street": "Divisadero Street", "amenity": "restaurant", "cuisine": "italian", "name": "Che Fico", "phone": "+1-415-416-6959", "website": "https://www.chefico.com"}}, {"type": "node", "id": 8670068298, "lat": 37.7763621, "lon": -122.4241676}, {"type": "node", "id": 8851950180, "lat": 37.775869, "lon": -122.4226658, "tags": {"addr:city": "San Francisco", "addr:housenumber": "298", "addr:postcode": "94102", "addr:state": "CA", "addr:street": "Gough Street", "amenity": "restaurant", "check_date": "2023-01-05", "cuisine": "chinese;dumpling", "name": "Dumpling Home", "opening_hours": "Tu-Th 11:30-14:15, 17:00-20:15; Fr, Sa 11:30-14:15, 17:00-20:45", "opening_hours:url": "https://www.dumplinghome.com/", "outdoor_seating": "yes", "phone": "+1 415 5031666", "website": "https://www.dumplinghome.com/", "wheelchair": "yes"}}, {"type": "node", "id": 8957595581, "lat": 37.7862106, "lon": -122.4300656, "tags": {"addr:housenumber": "1737", "addr:street": "Buchanan Street", "amenity": "restaurant", "cuisine": "ramen", "name": "Hinodeya"}}, {"type": "node", "id": 8957614281, "lat": 37.7860424, "lon": -122.429769, "tags": {"addr:floor": "2F", "addr:housenumber": "1728", "addr:street": "Buchanan Street", "amenity": "restaurant", "check_date": "2023-11-26", "contact:facebook": "Ramen-Yamadaya-San-Francisco-519603131487414", "contact:instagram": "yamadayaramen", "contact:yelp": "https://www.yelp.com/biz/ramen-yamadaya-san-francisco", "cuisine": "japanese;ramen", "email": "info@ramen-yamadaya.com", "indoor_seating": "yes", "level": "1", "name": "Ramen Yamadaya", "opening_hours": "Mo,We-Fr 11:00-14:30,17:00-21:00; Sa,Su 11:00-21:00", "opening_hours:url": "https://www.ramen-yamadaya.com/san-francisco", "outdoor_seating": "no", "phone": "+1 415 7954164", "reservation": "yes", "website": "https://www.ramen-yamadaya.com/san-francisco", "wheelchair": "no"}}, {"type": "node", "id": 8999974735, "lat": 37.7767002, "lon": -122.4234716, "tags": {"addr:housenumber": "425", "addr:street": "Hayes Street", "amenity": "restaurant", "cuisine": "mexican", "name": "Papito", "opening_hours": "Su-We 11:30-21:00; Th-Sa 11:30-22:00", "phone": "+1-415-554-0541", "website": "https://www.papitohayessf.com/"}}, {"type": "node", "id": 9181415310, "lat": 37.7851349, "lon": -122.4313563, "tags": {"addr:housenumber": "1581", "addr:street": "Webster Street", "addr:unit": "#206", "amenity": "restaurant", "contact:facebook": "SFOnTheBridge", "contact:instagram": "sfonthebridge", "cuisine": "japanese", "diet:halal": "no", "diet:kosher": "no", "diet:vegan": "no", "diet:vegetarian": "yes", "indoor_seating": "yes", "level": "1", "name": "On the Bridge", "opening_hours": "Mo-Th 12:00-20:00; Fr-Su 12:00-21:00", "outdoor_seating": "no", "phone": "+1 415 9227765", "website": "http://onthebridgesf.com/", "wheelchair": "yes"}}, {"type": "node", "id": 9200292423, "lat": 37.78488, "lon": -122.4317191, "tags": {"amenity": "cafe", "check_date": "2023-01-06", "contact:facebook": "matchacafemaikosf", "contact:instagram": "matchacafemaiko", "cuisine": "bubble_tea;ice_cream", "description": "Matcha soft-serve and drinks", "indoor_seating": "no", "level": "0", "name": "Matcha Cafe Maiko", "opening_hours": "Mo-Th 11:30-21:00; Fr-Sa 11:30-22:00; Su 11:30-21:00", "outdoor_seating": "no", "payment:credit_cards": "yes", "phone": "+1 415 7570919", "takeaway": "yes", "website": "https://www.matchacafe-maiko.com/eng/", "wheelchair": "yes"}}, {"type": "node", "id": 9200292427, "lat": 37.7849664, "lon": -122.4320604, "tags": {"addr:unit": "#145", "amenity": "restaurant", "contact:facebook": "bequekoreangrill3", "contact:instagram": "bequekoreangrill", "contact:yelp": "https://www.yelp.com/biz/beque-bbq-grill-san-francisco", "cuisine": "korean", "description": "Korean BBQ", "email": "bequekoreangrill@gmail.com", "level": "0", "name": "Beque", "opening_hours": "Mo-We 16:30-22:00; Th-Sa 11:30-22:30; Su 11:30-22:00", "phone": "+1 415 8729868", "website": "https://bequekoreangrill.com/", "website:menu": "https://uploads-ssl.webflow.com/5e9610a46f44462b0f63efdd/61d3c1697fa7c07d89a46fba_Beque%20Menu.pdf"}}, {"type": "node", "id": 9200292431, "lat": 37.7847709, "lon": -122.4319524, "tags": {"addr:housenumber": "1581", "addr:street": "Webster Street", "addr:unit": "#270", "amenity": "restaurant", "contact:instagram": "izumiyaokonomiyaki", "contact:twitter": "IOkonomiyaki", "cuisine": "japanese", "description": "Okonomiyaki", "email": "order@izumiyaonline.com", "level": "1", "name": "Izumiya", "opening_hours": "Tu 17:00-20:00; We,Th 11:30-14:30,17:00-20:00; Fr 15:00-20:30; Sa 12:00-20:30; Su 12:00-19:30", "opening_hours:url": "https://www.izumiyaonline.com/", "phone": "+1 415 4416867", "website": "https://www.izumiyaonline.com/"}}, {"type": "node", "id": 9200292437, "lat": 37.7848938, "lon": -122.4320175, "tags": {"amenity": "restaurant", "contact:facebook": "UdonMugizo", "contact:instagram": "udonmugizo1", "contact:twitter": "umugizo", "cuisine": "japanese;noodle", "level": "1", "name": "Udon Mugizo", "opening_hours": "Mo-Fr 11:00-14:00,17:00-21:00; Sa,Su 11:00-21:00", "opening_hours:url": "https://www.mugizo-us.com/san-francisco", "phone": "+1 415 9313118", "takeaway": "yes", "website": "https://www.mugizo-us.com/san-francisco"}}, {"type": "node", "id": 9200292439, "lat": 37.7851275, "lon": -122.431998, "tags": {"amenity": "restaurant", "contact:instagram": "marufukuramenofficial", "cuisine": "ramen", "diet:vegetarian": "yes", "indoor_seating": "yes", "level": "1", "name": "Marufuku Ramen", "opening_hours": "Mo-Su 11:00-21:00", "opening_hours:url": "https://www.marufukuramen.com/sanfrancisco", "outdoor_seating": "no", "phone": "+1 415-872-9786", "website": "https://www.marufukuramen.com/sanfrancisco", "wheelchair": "yes"}}, {"type": "node", "id": 9200429704, "lat": 37.785227, "lon": -122.4304164}, {"type": "node", "id": 9200429710, "lat": 37.7849782, "lon": -122.4310419}, {"type": "node", "id": 9200429716, "lat": 37.7851544, "lon": -122.4308356}, {"type": "node", "id": 9200430819, "lat": 37.7852392, "lon": -122.4303113}, {"type": "node", "id": 9200430820, "lat": 37.7853194, "lon": -122.430431, "tags": {"amenity": "restaurant", "cuisine": "sushi", "level": "1", "name": "Izumi Sushi", "opening_hours:url": "https://www.izumikaitensushi.com/", "phone": "+1 415 8729545", "website": "https://www.izumikaitensushi.com/", "website:menu": "https://www.izumikaitensushi.com/menu"}}, {"type": "node", "id": 9200860182, "lat": 37.7851241, "lon": -122.4317047}, {"type": "node", "id": 9200860216, "lat": 37.7850666, "lon": -122.4316924}, {"type": "node", "id": 9200863620, "lat": 37.7850812, "lon": -122.4315827}, {"type": "node", "id": 9200863621, "lat": 37.7851598, "lon": -122.4315995}, {"type": "node", "id": 9200863622, "lat": 37.7851451, "lon": -122.4317092}, {"type": "node", "id": 9203586541, "lat": 37.7850838, "lon": -122.4309081}, {"type": "node", "id": 9203586542, "lat": 37.7851275, "lon": -122.4309171}, {"type": "node", "id": 9203586543, "lat": 37.7851359, "lon": -122.4308518}, {"type": "node", "id": 9203586544, "lat": 37.7850923, "lon": -122.4308428}, {"type": "node", "id": 9203586545, "lat": 37.7851519, "lon": -122.4308551}, {"type": "node", "id": 9203586547, "lat": 37.7851725, "lon": -122.4308393}, {"type": "node", "id": 9203586548, "lat": 37.7851005, "lon": -122.4307791}, {"type": "node", "id": 9203586550, "lat": 37.7851085, "lon": -122.4307166}, {"type": "node", "id": 9203586551, "lat": 37.7851862, "lon": -122.4307327}, {"type": "node", "id": 9203586553, "lat": 37.7851163, "lon": -122.4306562}, {"type": "node", "id": 9203586554, "lat": 37.7851299, "lon": -122.4305513}, {"type": "node", "id": 9203586557, "lat": 37.7851406, "lon": -122.430468}, {"type": "node", "id": 9203586558, "lat": 37.7852106, "lon": -122.4305439}, {"type": "node", "id": 9203586559, "lat": 37.7851329, "lon": -122.4305279}, {"type": "node", "id": 9203586561, "lat": 37.7851493, "lon": -122.4304004}, {"type": "node", "id": 9203586566, "lat": 37.7851395, "lon": -122.4303768}, {"type": "node", "id": 9203586567, "lat": 37.7851195, "lon": -122.4303731}, {"type": "node", "id": 9203586568, "lat": 37.7851292, "lon": -122.4302906}, {"type": "node", "id": 9203586569, "lat": 37.785173, "lon": -122.4303831}, {"type": "node", "id": 9203586570, "lat": 37.7851827, "lon": -122.4303007}, {"type": "node", "id": 9203586572, "lat": 37.7852295, "lon": -122.4303938}, {"type": "node", "id": 9203586613, "lat": 37.7849732, "lon": -122.431083}, {"type": "node", "id": 9203586615, "lat": 37.7850321, "lon": -122.4310524}, {"type": "node", "id": 9203603317, "lat": 37.7850271, "lon": -122.4310935}, {"type": "node", "id": 9210988964, "lat": 37.78618, "lon": -122.4297966, "tags": {"addr:city": "San Francisco", "addr:housenumber": "1740", "addr:postcode": "94115", "addr:state": "CA", "addr:street": "Buchanan Street", "amenity": "restaurant", "check_date": "2024-05-26", "cuisine": "japanese", "description": "\"Katsu & Sake\"", "drink:sake": "yes", "name": "Ganji", "opening_hours": "Mo off; Tu-Th,Su 12:00-20:00; Fr-Sa 12:00-22:00"}}, {"type": "node", "id": 9236174364, "lat": 37.7777224, "lon": -122.423014, "tags": {"addr:city": "San Francisco", "addr:housenumber": "399", "addr:state": "CA", "addr:street": "Grove Street", "amenity": "restaurant", "check_date": "2023-07-24", "name": "Teakwood by Burma Love"}}, {"type": "node", "id": 9258477743, "lat": 37.7874194, "lon": -122.433406, "tags": {"addr:city": "San Francisco", "addr:housenumber": "1910", "addr:postcode": "94115", "addr:state": "CA", "addr:street": "Fillmore Street", "amenity": "cafe", "check_date": "2023-07-29", "cuisine": "coffee_shop", "name": "Compton's Coffee House", "outdoor_seating": "yes", "payment:mastercard": "yes", "payment:visa": "yes", "phone": "+1 415 416 6173", "website": "https://comptonscoffeehouse.com/", "wheelchair": "yes"}}, {"type": "node", "id": 9338307160, "lat": 37.7732653, "lon": -122.4213497, "tags": {"addr:city": "San Francisco", "addr:housenumber": "1655", "addr:postcode": "94103", "addr:street": "Market Street", "amenity": "restaurant", "check_date": "2024-10-29", "contact:facebook": "spiceofamerica", "contact:instagram": "spiceofamericasf", "contact:twitter": "spiceofamerica", "contact:yelp": "https://www.yelp.com/biz/spice-of-america-san-francisco-2", "cuisine": "indian", "email": "spiceofamerica@gmail.com", "name": "Spice of America", "opening_hours": "Mo-Fr 09:00-17:00", "phone": "+1 415 8727187", "short_name": "SOA", "website": "https://www.spiceofamerica.com/"}}, {"type": "node", "id": 9411966339, "lat": 37.7860512, "lon": -122.4297979, "tags": {"addr:city": "San Francisco", "addr:housenumber": "1726", "addr:state": "CA", "addr:street": "Buchanan Street", "amenity": "restaurant", "check_date": "2023-11-26", "cuisine": "japanese", "level": "0", "name": "Matsuyama Shabu House", "opening_hours:url": "https://www.shabusen-us.com/"}}, {"type": "node", "id": 9417009224, "lat": 37.7771768, "lon": -122.4248533, "tags": {"addr:city": "San Francisco", "addr:housenumber": "535", "addr:state": "CA", "addr:street": "Octavia Street", "amenity": "cafe", "branch": "Hayes Valley", "check_date": "2021-08-12", "contact:facebook": "nayadessertcafe", "contact:instagram": "nayadessertcafe", "cuisine": "dessert;ice_cream", "email": "nayacafesf@gmail.com", "name": "NaYa Dessert Cafe", "opening_hours": "Mo-Su 12:00-23:00", "opening_hours:url": "https://www.nayadessertcafe.com/", "phone": "+1 415 9268638", "website": "https://www.nayadessertcafe.com/"}}, {"type": "node", "id": 9544238052, "lat": 37.778113, "lon": -122.4216773}, {"type": "node", "id": 9557058880, "lat": 37.7728838, "lon": -122.4234875, "tags": {"addr:housenumber": "8", "addr:street": "Octavia Street", "amenity": "cafe", "brand:contact:facebook": "bobaguys", "brand:contact:instagram": "bobaguys", "brand:contact:twitter": "BobaGuys", "check_date": "2023-10-14", "cuisine": "bubble_tea", "name": "Boba Guys", "opening_hours": "11:00-18:00", "opening_hours:url": "https://www.bobaguys.com/sf-bay-area-express", "takeaway": "yes", "website": "https://www.bobaguys.com/"}}, {"type": "node", "id": 9579873183, "lat": 37.7856299, "lon": -122.430559, "tags": {"amenity": "cafe", "contact:facebook": "Crown-and-Crumpet-113053942102638", "contact:instagram": "crownandcrumpetsf", "cuisine": "tea", "level": "1", "name": "Crown & Crumpet", "phone": "+1 415 7714252", "website": "http://www.crownandcrumpet.com/san-francisco/", "wheelchair": "yes"}}, {"type": "node", "id": 9579899926, "lat": 37.7858111, "lon": -122.4288927, "tags": {"amenity": "cafe", "contact:instagram": "yakiniqcafe", "name": "YakiniQ Cafe"}}, {"type": "node", "id": 9581952655, "lat": 37.7851244, "lon": -122.4303303}, {"type": "node", "id": 9655240383, "lat": 37.7742299, "lon": -122.4223226, "tags": {"addr:housenumber": "100", "addr:street": "Gough Street", "amenity": "restaurant", "check_date": "2023-05-18", "name": "Baiano Pizzeria", "opening_hours": "Mo-Su 11:00-22:00", "payment:mastercard": "yes", "payment:visa": "yes", "phone": "+1 415-621-1401", "website": "https://www.baianopizzeria.com/", "wheelchair": "yes"}}, {"type": "node", "id": 9656743737, "lat": 37.7879461, "lon": -122.427042, "tags": {"addr:city": "San Francisco", "addr:housenumber": "1701", "addr:state": "CA", "addr:street": "Octavia Street", "amenity": "restaurant", "contact:facebook": "Octavia-103546288649039", "contact:instagram": "sf_octavia", "contact:twitter": "octavia_sf", "drink:wine": "yes", "email": "info@octavia-sf.com", "name": "Octavia", "opening_hours": "Tu-Sa 17:00-21:15; Su,Mo off", "opening_hours:url": "https://www.octavia-sf.com/", "phone": "+1 415 4087507", "reservation": "required", "website": "https://www.octavia-sf.com/"}}, {"type": "node", "id": 9657530538, "lat": 37.7788815, "lon": -122.423229, "tags": {"addr:housenumber": "392", "addr:street": "Fulton Street", "amenity": "restaurant", "bar": "yes", "check_date": "2024-06-01", "cocktails": "yes", "contact:instagram": "peacockpansy.sf", "cuisine": "thai;vietnamese", "diet:gluten_free": "yes", "diet:vegan": "yes", "drink:beer": "yes", "drink:wine": "yes", "indoor_seating": "yes", "name": "Peacock Pansy", "opening_hours": "Mo-Fr 09:00-14:00; Sa-Su 09:00-14:30", "outdoor_seating": "no", "reservation": "yes", "wheelchair": "yes"}}, {"type": "node", "id": 9673465967, "lat": 37.7868708, "lon": -122.428257, "tags": {"addr:city": "San Francisco", "addr:housenumber": "1700", "addr:postcode": "94115", "addr:state": "CA", "addr:street": "Laguna Street", "amenity": "restaurant", "cuisine": "sushi;japanese", "name": "Aoba", "opening_hours": "Tu-Sa 17:00-21:30", "phone": "415 - 658 - 7388", "website": "https://www.sushiaoba.com/"}}, {"type": "node", "id": 9675631719, "lat": 37.7756519, "lon": -122.4226107, "tags": {"addr:housenumber": "242", "addr:street": "Gough Street", "amenity": "cafe", "check_date": "2023-01-05", "name": "Planet Cafe"}}, {"type": "node", "id": 9677951789, "lat": 37.7811242, "lon": -122.4207576, "tags": {"addr:city": "San Francisco", "addr:housenumber": "601", "addr:postcode": "94102", "addr:state": "CA", "addr:street": "Van Ness Avenue", "alt_name": "Max's at the Opera", "amenity": "restaurant", "check_date:opening_hours": "2024-03-30", "contact:facebook": "maxsoperacafesf", "contact:twitter": "maxsopera", "cuisine": "jewish", "email": "MaxsOperaSF@maxsworld.com", "name": "Max's Opera Cafe", "opening_hours": "Mo-Su 11:00-21:00", "opening_hours:url": "https://www.maxsoperasf.com/", "outdoor_seating": "yes", "phone": "+1 415 7717300", "website": "https://www.maxsoperasf.com/"}}, {"type": "node", "id": 9677975765, "lat": 37.7824571, "lon": -122.4205014, "tags": {"addr:city": "San Francisco", "addr:housenumber": "752", "addr:state": "CA", "addr:street": "Van Ness Avenue", "amenity": "restaurant", "cuisine": "poke;sushi;japanese", "name": "Kitchen Aloha", "opening_hours": "Su-Fr 11:00-14:00,17:30-21:00; PH,Sa off"}}, {"type": "node", "id": 9688497223, "lat": 37.7748229, "lon": -122.4210263, "tags": {"addr:housenumber": "41", "addr:street": "Franklin Street", "amenity": "restaurant", "check_date": "2023-02-05", "cuisine": "japanese", "name": "Nakama Sushi", "opening_hours": "Su-Th 17:00-21:00; Fr-Sa 17:00-21:30", "phone": "(628) 867-6697", "website": "https://www.nakamasushisf.com"}}, {"type": "node", "id": 9704672158, "lat": 37.7833267, "lon": -122.420665, "tags": {"addr:city": "San Francisco", "addr:housenumber": "826", "addr:postcode": "94109", "addr:state": "CA", "addr:street": "Van Ness Avenue", "amenity": "cafe", "check_date": "2023-01-09", "contact:facebook": "VanNessCafe", "contact:foursquare": "https://foursquare.com/v/van-ness-cafe-and-gyros/5b68e44c286fda002c22548f", "contact:instagram": "vannesscafe", "contact:tripadvisor": "https://www.tripadvisor.com/Restaurant_Review-g60713-d15175194-Reviews-Van_Ness_Cafe_and_Gyros-San_Francisco_California.html", "contact:yelp": "https://www.yelp.com/biz/van-ness-cafe-and-gyros-san-francisco-3", "cuisine": "mediterranean", "indoor_seating": "yes", "name": "Van Ness Cafe & Gyros", "opening_hours": "Mo-Fr 10:00-21:50; Sa 10:00-26:00; Su 10:00-21:50", "opening_hours:url": "https://www.ordervannesscafe.com/", "outdoor_seating": "no", "phone": "+1 415 5897900", "website": "https://www.ordervannesscafe.com/", "wheelchair": "yes"}}, {"type": "node", "id": 9719718040, "lat": 37.7779856, "lon": -122.4228597, "tags": {"addr:city": "San Francisco", "addr:housenumber": "370", "addr:postcode": "94102", "addr:state": "CA", "addr:street": "Grove Street", "amenity": "restaurant", "check_date": "2022-03-12", "cocktails": "yes", "contact:facebook": "phonobarsf", "contact:instagram": "phonobarsf", "diet:vegan": "only", "drink:beer": "yes", "drink:wine": "yes", "food": "yes", "name": "Phonobar & Om Sabor", "opening_hours": "Mo off; Tu,We 17:00-24:00; Th-Sa 17:00-26:00; Su 17:00-22:00", "opening_hours:signed": "yes", "outdoor_seating": "yes", "website": "https://phonobarsf.com/"}}, {"type": "node", "id": 9864838652, "lat": 37.774724, "lon": -122.4207064, "tags": {"addr:city": "San Francisco", "addr:housenumber": "22", "addr:postcode": "94102", "addr:state": "CA", "addr:street": "Franklin Street", "amenity": "cafe", "check_date": "2024-08-24", "cuisine": "coffee_shop", "name": "Buoy"}}, {"type": "node", "id": 9894348402, "lat": 37.7767094, "lon": -122.4236198, "tags": {"addr:housenumber": "437", "addr:street": "Hayes Street", "alt_name": "0&", "amenity": "cafe", "cuisine": "bubble_tea", "indoor_seating": "no", "name": "Zero&", "opening_hours": "Mo-Th, Su 11:30-21:00; Fr, Sa 11:30-22:00", "outdoor_seating": "no", "takeaway": "only", "wheelchair": "yes"}}, {"type": "node", "id": 9918161615, "lat": 37.78505, "lon": -122.4291218}, {"type": "node", "id": 9938473369, "lat": 37.7853115, "lon": -122.4291747, "tags": {"entrance": "yes", "indoor": "yes", "level": "2"}}, {"type": "node", "id": 9938473371, "lat": 37.7851532, "lon": -122.4291294, "tags": {"entrance": "yes", "indoor": "yes", "level": "2"}}, {"type": "node", "id": 9938473372, "lat": 37.7851474, "lon": -122.4291731, "tags": {"entrance": "yes", "indoor": "yes", "level": "2"}}, {"type": "node", "id": 9938473374, "lat": 37.7852747, "lon": -122.429378, "tags": {"entrance": "yes", "indoor": "yes", "level": "2"}}, {"type": "node", "id": 9938473376, "lat": 37.7853624, "lon": -122.4294007, "tags": {"entrance": "yes", "indoor": "yes", "level": "2"}}, {"type": "node", "id": 9938473379, "lat": 37.7854285, "lon": -122.4291938}, {"type": "node", "id": 9938473380, "lat": 37.7853969, "lon": -122.4291873}, {"type": "node", "id": 9938473381, "lat": 37.7853926, "lon": -122.429221}, {"type": "node", "id": 9938473382, "lat": 37.7853236, "lon": -122.4292069}, {"type": "node", "id": 9938473383, "lat": 37.7852579, "lon": -122.4291637}, {"type": "node", "id": 9938473384, "lat": 37.7852717, "lon": -122.4290553}, {"type": "node", "id": 9938473387, "lat": 37.785059, "lon": -122.4290528}, {"type": "node", "id": 9938473388, "lat": 37.7851514, "lon": -122.4291431}, {"type": "node", "id": 9938473389, "lat": 37.7851375, "lon": -122.4294118}, {"type": "node", "id": 9938473391, "lat": 37.7851432, "lon": -122.4292055}, {"type": "node", "id": 9938473392, "lat": 37.7850418, "lon": -122.4291842}, {"type": "node", "id": 9938473394, "lat": 37.7852811, "lon": -122.4293794}, {"type": "node", "id": 9938473395, "lat": 37.785131, "lon": -122.4294613}, {"type": "node", "id": 9938473397, "lat": 37.7852787, "lon": -122.4293976}, {"type": "node", "id": 9938473398, "lat": 37.7852666, "lon": -122.4294897}, {"type": "node", "id": 9938473401, "lat": 37.7854418, "lon": -122.4290901}, {"type": "node", "id": 9938473402, "lat": 37.7853404, "lon": -122.4295103}, {"type": "node", "id": 9938473403, "lat": 37.7853546, "lon": -122.4293991}, {"type": "node", "id": 9938473404, "lat": 37.7853869, "lon": -122.4295198}, {"type": "node", "id": 9956028492, "lat": 37.7772288, "lon": -122.41938, "tags": {"addr:city": "San Francisco", "addr:housenumber": "150", "addr:postcode": "94102", "addr:state": "CA", "addr:street": "Van Ness Avenue", "addr:unit": "C", "amenity": "cafe", "branch": "150 Van Ness", "brand": "Starbucks", "brand:wikidata": "Q37158", "check_date": "2023-01-05", "cuisine": "coffee_shop", "indoor_seating": "yes", "name": "Starbucks", "official_name": "Starbucks Coffee", "outdoor_seating": "no", "phone": "+1 415-558-7715", "takeaway": "yes", "website": "https://www.starbucks.com/store-locator/store/1028036/150-van-ness-150-van-ness-san-francisco-ca-941025200-us"}}, {"type": "node", "id": 9956029007, "lat": 37.7869905, "lon": -122.4231846, "tags": {"amenity": "cafe", "name": "Cafe Pacific Plaza"}}, {"type": "node", "id": 9994017064, "lat": 37.7770174, "lon": -122.4226762, "tags": {"addr:housenumber": "388", "addr:street": "Hayes Street", "amenity": "restaurant", "check_date": "2023-01-05", "name": "Arbor"}}, {"type": "node", "id": 9994039368, "lat": 37.7780683, "lon": -122.4222025, "tags": {"amenity": "restaurant", "check_date": "2023-04-26", "cuisine": "sushi", "description": "Bullet train sushi", "name": "Zenpo Sushi"}}, {"type": "node", "id": 10036505958, "lat": 37.787442, "lon": -122.4235769, "tags": {"addr:city": "San Francisco", "addr:housenumber": "1400", "addr:postcode": "94109", "addr:state": "CA", "addr:street": "Sutter Street", "amenity": "restaurant", "check_date": "2023-08-14", "cuisine": "italian", "name": "Limoncello", "opening_hours": "Mo-Th 09:00-20:00; Fr-Sa 09:00-21:00; Su 09:00-20:00", "payment:american_express": "yes", "payment:cash": "yes", "payment:discover_card": "yes", "payment:mastercard": "yes", "payment:visa": "yes", "phone": "+1-415-638-6361", "website": "https://limoncellostogo.com"}}, {"type": "node", "id": 10069588757, "lat": 37.7831404, "lon": -122.4206191, "tags": {"addr:housenumber": "810", "addr:street": "Van Ness Avenue", "amenity": "restaurant", "cuisine": "japanese", "name": "Hinata", "website": "https://www.hinatasf.com/"}}, {"type": "node", "id": 10239389564, "lat": 37.7780881, "lon": -122.4218768}, {"type": "node", "id": 10239389565, "lat": 37.7782711, "lon": -122.4219134}, {"type": "node", "id": 10239389566, "lat": 37.7782961, "lon": -122.4217169}, {"type": "node", "id": 10258023583, "lat": 37.771409, "lon": -122.4351414, "tags": {"addr:city": "San Francisco", "addr:housenumber": "791", "addr:postcode": "94117", "addr:state": "CA", "addr:street": "Haight Street", "amenity": "cafe", "check_date": "2023-02-06", "cuisine": "juice", "diet:vegan": "yes", "diet:vegetarian": "yes", "name": "Sidewalk Juice", "website": "https://sidewalkjuice.com/locations/haight-st/", "wheelchair": "yes"}}, {"type": "node", "id": 10270407011, "lat": 37.7791403, "lon": -122.4232989, "tags": {"addr:city": "San Francisco", "addr:housenumber": "620", "addr:postcode": "94102", "addr:state": "CA", "addr:street": "Gough Street", "amenity": "restaurant", "cuisine": "japanese", "name": "Robin", "opening_hours": "17:00-21:30", "reservation": "yes", "website": "http://robinsanfrancisco.com/"}}, {"type": "node", "id": 10575364924, "lat": 37.7774528, "lon": -122.4381055, "tags": {"addr:housenumber": "836", "addr:street": "Divisadero Street", "amenity": "cafe", "check_date": "2023-01-22", "cuisine": "bubble_tea", "name": "Boba Guys"}}, {"type": "node", "id": 10698549700, "lat": 37.775669, "lon": -122.4258548, "tags": {"amenity": "cafe", "check_date": "2023-03-05", "cuisine": "bubble_tea", "name": "Urban Ritual", "opening_hours:signed": "no", "outdoor_seating": "no", "wheelchair": "yes"}}, {"type": "node", "id": 10705697687, "lat": 37.7759025, "lon": -122.4263001, "tags": {"amenity": "restaurant", "check_date": "2023-03-02", "name": "Domo"}}, {"type": "node", "id": 10719976675, "lat": 37.7760277, "lon": -122.4212428, "tags": {"amenity": "cafe", "check_date": "2023-03-07", "name": "Nina's Cafe", "note": "The name appears in the sidewalk by the door"}}, {"type": "node", "id": 11184513551, "lat": 37.778371, "lon": -122.4231438, "tags": {"addr:housenumber": "520", "addr:street": "Gough Street", "amenity": "restaurant", "cuisine": "vietnamese", "name": "DragonEats", "website": "https://dragoneats.com/"}}, {"type": "node", "id": 11334989402, "lat": 37.7862502, "lon": -122.4331998, "tags": {"addr:city": "San Francisco", "addr:housenumber": "1800", "addr:postcode": "94115", "addr:state": "CA", "addr:street": "Fillmore Street", "amenity": "restaurant", "cuisine": "pizza", "name": "Pizza Inferno"}}, {"type": "node", "id": 11709481314, "lat": 37.7770783, "lon": -122.4223772, "tags": {"amenity": "restaurant", "cuisine": "hot_dog", "name": "Hayz Dog", "outdoor_seating": "yes", "takeaway": "yes"}}, {"type": "node", "id": 11752501602, "lat": 37.780939, "lon": -122.4189945, "tags": {"addr:city": "San Francisco", "addr:housenumber": "525", "addr:postcode": "94102", "addr:state": "CA", "addr:street": "Golden Gate Avenue", "amenity": "cafe", "cuisine": "coffee_shop", "name": "SPRO", "opening_hours": "Mo-Fr 07:00-17:00", "outdoor_seating": "no", "phone": "(415) 844-0650", "website": "https://www.sprocoffeelab.com/"}}, {"type": "node", "id": 12031444506, "lat": 37.7745954, "lon": -122.422657, "tags": {"addr:city": "San Francisco", "addr:housenumber": "131", "addr:postcode": "94102", "addr:state": "CA", "addr:street": "Gough Street", "amenity": "restaurant", "cuisine": "mediterranean", "name": "Xebec", "phone": "+1 415-266-7798", "website": "https://xebec-sf.com/"}}, {"type": "node", "id": 12198078476, "lat": 37.777527, "lon": -122.4381329, "tags": {"addr:city": "San Francisco", "addr:housenumber": "846", "addr:postcode": "94117", "addr:street": "Divisadero Street", "amenity": "restaurant", "cuisine": "grill", "name": "Foghorn Taproom", "website": "https://www.foghorntaproom.com/"}}, {"type": "node", "id": 12244843908, "lat": 37.7749696, "lon": -122.4373686}, {"type": "node", "id": 12356353509, "lat": 37.7762284, "lon": -122.421581, "tags": {"addr:city": "San Francisco", "addr:housenumber": "205", "addr:postcode": "94102", "addr:state": "CA", "addr:street": "Franklin Street", "amenity": "restaurant", "cuisine": "sandwich;venezuelan", "name": "Andina", "opening_hours": "We-Su 11:00-15:00", "website": "https://andinasf.square.site/"}}, {"type": "node", "id": 12408404345, "lat": 37.7765813, "lon": -122.4227827, "tags": {"addr:city": "San Francisco", "addr:housenumber": "330", "addr:postcode": "94102", "addr:state": "CA", "addr:street": "Gough Street", "amenity": "restaurant", "name": "Nightbird", "opening_hours": "Tu-Sa 17:00-22:00; Su-Mo off", "phone": "+1-415-829-7565", "website": "https://www.nightbirdrestaurant.com/"}}, {"type": "way", "id": 240174689, "nodes": [2568383519, 2568383520, 2479327597, 2568383521, 2568383523, 761407513, 2568383525, 2568383526, 761407514, 2568383528, 2568383530, 761407515, 2540215559, 2540215567, 2540215566, 2540215560, 2540215561, 2540215562, 2540215563, 2568383519], "tags": {"addr:city": "San Francisco", "addr:housenumber": "465", "addr:postcode": "94102", "addr:state": "CA", "addr:street": "Grove Street", "amenity": "restaurant", "check_date": "2023-01-05", "cuisine": "burger", "indoor": "room", "name": "Double Decker", "opening_hours": "Mo-Su 10:30-21:00", "phone": "+1 415-552-8042", "takeaway": "yes", "website": "https://doubledeckerssf.square.site/"}}, {"type": "way", "id": 247085039, "nodes": [2540215572, 1611963577, 8670068298, 1611963578, 2540215573, 2540215572], "tags": {"addr:housenumber": "370", "addr:street": "Linden Street", "amenity": "cafe", "building": "yes", "check_date": "2023-06-30", "cuisine": "coffee_shop", "name": "Ritual Coffee Roasters", "opening_hours": "07:00-19:00"}}, {"type": "way", "id": 256730304, "nodes": [2623634649, 2623634658, 2623634654, 2623634611, 2923566774, 2923566782, 2623634649], "tags": {"addr:housenumber": "1658", "addr:street": "Market Street", "amenity": "restaurant", "building": "yes", "check_date": "2024-10-29", "diet:halal": "no", "diet:kosher": "no", "diet:vegan": "yes", "diet:vegetarian": "yes", "height": "7", "name": "Zuni Caf\u00e9", "opening_hours": "Mo off; Tu-Th 17:00-21:30; Fr-Su 11:00-16:00,17:00-21:30", "phone": "+1 415-552-2522", "website": "https://zunicafe.com/", "wheelchair": "yes", "wikidata": "Q8075291"}}, {"type": "way", "id": 261292748, "nodes": [2669246452, 12244843908, 2669246322, 2669246260, 2669246392, 2669246452], "tags": {"addr:city": "San Francisco", "addr:country": "US", "addr:housenumber": "560", "addr:postcode": "94117", "addr:state": "CA", "addr:street": "Divisadero Street", "amenity": "restaurant", "building": "yes", "changing_table": "limited", "cuisine": "american", "height": "9", "name": "Nopa", "opening_hours": "Mo-Th 17:30-22:00; Fr-Sa 17:30-23:00", "phone": "+1 415-864-8643", "roof:height": "2", "roof:shape": "mansard", "website": "https://www.nopasf.com"}}, {"type": "way", "id": 263242710, "nodes": [2688643741, 2688643744, 2688643752, 2688643755, 2688588448, 2688588377, 2688643738, 2688643735, 2688643741], "tags": {"addr:city": "San Francisco", "addr:housenumber": "1700", "addr:postcode": "94115", "addr:state": "CA", "addr:street": "Fillmore Street", "amenity": "restaurant", "building": "yes", "check_date": "2024-09-01", "cuisine": "indian", "disused:amenity": "restaurant", "height": "7", "name": "Copra", "wheelchair": "yes"}}, {"type": "way", "id": 263278576, "nodes": [2688958332, 2688958326, 2688958341, 2688958455, 2688958466, 2688958494, 2688958496, 2688958497, 2688958332], "tags": {"addr:housenumber": "2232", "addr:street": "Bush Street", "amenity": "restaurant", "building": "yes", "cuisine": "fusion", "height": "9", "name": "OTD"}}, {"type": "way", "id": 996450668, "nodes": [9200863620, 9200860216, 9200860182, 9200863622, 9200863621, 9200863620], "tags": {"amenity": "restaurant", "cuisine": "sushi", "description": "Sushi boat", "indoor": "room", "level": "1", "name": "Tenroku Sushi", "opening_hours": "Mo-Su 11:30-21:30"}}, {"type": "way", "id": 996750961, "nodes": [9203586543, 9203586542, 9203586541, 9203586544, 9203586543], "tags": {"amenity": "cafe", "check_date": "2023-04-27", "check_date:opening_hours": "2024-05-17", "cuisine": "bubble_tea", "indoor": "room", "level": "1", "name": "Pink Pink Tea Shoppe", "opening_hours:signed": "no", "proposed:website": "pinkpinkteashoppe.com", "ref": "383"}}, {"type": "way", "id": 996750962, "nodes": [9203586551, 9203586547, 9200429716, 9203586545, 9203586543, 9203586544, 9203586548, 9203586550, 9203586551], "tags": {"amenity": "restaurant", "contact:instagram": "kushitsuru", "cuisine": "japanese;ramen;sushi", "email": "kushitsuru16@gmail.com", "indoor": "room", "level": "1", "name": "Kushi Tsuru", "opening_hours": "Mo-Th,Su 11:00-21:00; Fr,Sa 11:00-21:30", "opening_hours:url": "https://www.kushitsuru.com/", "phone": "+1 415 9229902", "ref": "380", "website": "https://www.kushitsuru.com/", "website:menu": "https://www.kushitsuru.com/menu"}}, {"type": "way", "id": 996750964, "nodes": [9203586558, 9203586551, 9203586550, 9203586553, 9203586554, 9203586559, 9203586558], "tags": {"amenity": "restaurant", "cuisine": "japanese", "indoor": "room", "level": "1", "name": "Nande-Ya", "ref": "375"}}, {"type": "way", "id": 996750967, "nodes": [9200429704, 9203586561, 9203586557, 9203586559, 9203586558, 9200429704], "tags": {"amenity": "restaurant", "cuisine": "japanese", "indoor": "room", "level": "1", "name": "Osakaya", "phone": "+1 415 9222728", "ref": "370"}}, {"type": "way", "id": 996750969, "nodes": [9203586570, 9203586568, 9581952655, 9203586567, 9203586566, 9203586569, 9203586570], "tags": {"addr:housenumber": "1737", "addr:street": "Post Street", "addr:unit": "367", "amenity": "cafe", "brand": "Yi Fang Tea", "brand:en": "Yi Fang Tea", "brand:wikidata": "Q66196395", "brand:zh": "\u4e00\u82b3\u6c34\u679c\u8336", "check_date": "2024-04-21", "cuisine": "bubble_tea", "delivery": "yes", "email": "japantownyifang@gmail.com", "indoor": "room", "level": "1", "name": "Yi Fang Tea", "name:en": "Yi Fang Tea", "name:zh": "\u4e00\u82b3\u6c34\u679c\u8336", "opening_hours": "Mo-Su 11:00-20:00", "payment:cash": "yes", "payment:credit_cards": "yes", "phone": "+1 628-600-7288", "ref": "367", "takeaway": "yes", "website": "https://www.yifangjpt.com/", "wheelchair": "yes"}}, {"type": "way", "id": 996750970, "nodes": [9203586572, 9200430819, 9203586570, 9203586569, 9203586572], "tags": {"addr:housenumber": "1737", "addr:street": "Post Street", "addr:unit": "368", "amenity": "cafe", "check_date": "2024-08-06", "indoor": "room", "internet_access": "no", "level": "1", "name": "Maruwu Seicha", "outdoor_seating": "no", "payment:cash": "yes", "payment:credit_cards": "yes", "ref": "368", "wheelchair": "yes"}}, {"type": "way", "id": 996750986, "nodes": [9203586615, 9200429710, 9203586613, 9203603317, 9203586615], "tags": {"amenity": "restaurant", "cuisine": "japanese", "email": "contact@omasfstation.com", "indoor": "room", "level": "1", "name": "Oma San Francisco Station", "ref": "337", "website": "https://omasfstation.com/"}}, {"type": "way", "id": 1084548879, "nodes": [9938473383, 9938473369, 4628749771, 9938473382, 9938473381, 9938473380, 9938473379, 9938473401, 9938473384, 9938473383], "tags": {"amenity": "restaurant", "cuisine": "korean", "diet:halal": "no", "diet:kosher": "no", "diet:vegetarian": "yes", "indoor": "room", "indoor_seating": "yes", "level": "2", "name": "Seoul Garden Restaurant", "name:ko": "\uc11c\uc6b8\uac00\ub4e0", "outdoor_seating": "no", "wheelchair": "yes"}}, {"type": "way", "id": 1084548881, "nodes": [9938473388, 9938473371, 6693595721, 9938473387, 9918161615, 9938473388], "tags": {"amenity": "restaurant", "contact:facebook": "sushiansf", "contact:instagram": "sushiansf", "contact:twitter": "sushiansf", "cuisine": "japanese", "email": "info@sushiansf.com", "indoor": "room", "indoor_seating": "yes", "level": "2", "name": "An Sushi", "name:ja": "\u5eb5", "outdoor_seating": "no", "phone": "+1 415 2507276", "website": "https://sushiansf.com/"}}, {"type": "way", "id": 1084548882, "nodes": [9938473391, 9938473372, 9938473388, 9918161615, 9938473392, 9938473391], "tags": {"addr:city": "San Francisco", "addr:housenumber": "22", "addr:place": "Peace Plaza", "addr:postcode": "94115", "addr:state": "CA", "addr:unit": "511", "amenity": "cafe", "check_date": "2024-09-26", "check_date:opening_hours": "2024-09-26", "contact:instagram": "screensavor", "contact:twitter": "screensavor", "cuisine": "coffee_shop;bubble_tea", "description": "Art and coffee", "drink:beer": "no", "drink:bubble_tea": "yes", "drink:coffee": "yes", "drink:espresso": "yes", "drink:hot_chocolate": "yes", "drink:tea": "yes", "drink:wine": "no", "food": "no", "indoor": "room", "indoor_seating": "no", "level": "2", "name": "Screen Savor", "note:opening_hours": "These are soft opening hours", "opening_hours": "Mo-Fr 11:00-17:00; Sa,Su 10:00-18:00", "opening_hours:signed": "no", "outdoor_seating": "no", "ref": "511", "takeaway": "only", "website": "https://screensavor.com/", "website:menu": "https://screensavor.com/#menu"}}, {"type": "way", "id": 1084548884, "nodes": [9938473398, 9938473395, 9938473389, 6693595726, 9938473374, 9938473394, 9938473397, 9938473398], "tags": {"addr:city": "San Francisco", "addr:housenumber": "22", "addr:place": "Peace Plaza", "addr:postcode": "94115", "addr:state": "CA", "addr:unit": "530", "amenity": "restaurant", "contact:facebook": "https://www.facebook.com/pages/category/Japanese-Restaurant/Sasa-Japanese-Restaurant-1275103022630839/", "contact:instagram": "sasa_sanfrancisco", "contact:yelp": "https://www.yelp.com/biz/sasa-san-francisco", "cuisine": "japanese", "indoor": "room", "indoor_seating": "yes", "level": "2", "name": "SaSa Japanese Restaurant", "name:ja": "\u7b39", "opening_hours": "Mo-Su 12:00-14:00,17:30-21:00", "opening_hours:url": "http://sasasf.com/", "outdoor_seating": "no", "phone": "+1 628 6006945", "reservation": "yes", "website": "https://www.sasasf.com/"}}, {"type": "way", "id": 1084548887, "nodes": [9938473404, 6693595730, 9938473376, 9938473403, 9938473402, 9938473404], "tags": {"amenity": "restaurant", "cuisine": "japanese", "indoor": "room", "indoor_seating": "yes", "level": "2", "name": "Kui Shin Bo", "name:ja": "\u98df\u3044\u3057\u3093\u574a", "outdoor_seating": "no"}}, {"type": "way", "id": 1119503897, "nodes": [10239389566, 9544238052, 10239389564, 10239389565, 10239389566], "tags": {"addr:city": "San Francisco", "addr:housenumber": "300", "addr:state": "CA", "addr:street": "Grove Street", "amenity": "restaurant", "building": "retail", "check_date": "2023-01-13", "contact:facebook": "baiasf", "contact:instagram": "baia.sf", "cuisine": "italian", "diet:vegan": "only", "diet:vegetarian": "only", "drink:wine": "yes", "email": "info@baiasf.com", "name": "Baia", "opening_hours": "Mo-Th,Su 17:00-22:00; Fr-Sa 17:00-23:00", "opening_hours:url": "https://www.baiasf.com/", "phone": "+1 415 8610625", "reservation": "yes", "website": "https://www.baiasf.com/"}}]}