{"version": 0.6, "generator": "Overpass API 0.7.62.4 2390de5a", "osm3s": {"timestamp_osm_base": "2024-12-30T00:13:53Z", "copyright": "The data included in this document is from www.openstreetmap.org. The data is made available under ODbL."}, "elements": [{"type": "node", "id": 310683040, "lat": 37.8004763, "lon": -122.27412, "tags": {"addr:city": "Oakland", "addr:housenumber": "460", "addr:postcode": "94607", "addr:street": "8th Street", "amenity": "pub", "name": "Sante Adairius Rustic Ales: Oakland Arbor", "note": "The Trappist closed in 2021", "old_name": "The Trappist", "website": "https://rusticales.com/#"}}, {"type": "node", "id": 346553019, "lat": 37.8081974, "lon": -122.269705, "tags": {"addr:housenumber": "1900", "addr:street": "Telegraph Avenue", "amenity": "restaurant", "bar": "yes", "cuisine": "pakistani", "name": "Gold Palm", "old_name": "Flora;Palmetto", "website": "https://www.instagram.com/goldpalmoakland/", "wheelchair": "yes"}}, {"type": "node", "id": 417089832, "lat": 37.80368, "lon": -122.274969, "tags": {"addr:housenumber": "555", "addr:street": "12th Street", "amenity": "cafe", "name": "Oaklandia Cafe x Bakery", "old_name": "Specialty's Caf\u00e9;It's a Grind", "website": "https://www.oaklandiacafe.com/", "wheelchair": "yes"}}, {"type": "node", "id": 914532768, "lat": 37.799168, "lon": -122.278087, "tags": {"amenity": "cafe", "name": "Shapeshifters Cafe"}}, {"type": "node", "id": 1037998932, "lat": 37.8015933, "lon": -122.27424, "tags": {"addr:city": "Oakland", "addr:housenumber": "906", "addr:postcode": "94607", "addr:street": "Washington Street", "amenity": "restaurant", "former:name": "The Lede;Pacific Coast Brewery", "name": "Popoca Oakland", "outdoor_seating": "yes", "smoking": "no", "was:bar": "yes", "was:brewery": "yes", "wheelchair": "yes"}}, {"type": "node", "id": 1186380348, "lat": 37.800557, "lon": -122.274302, "tags": {"addr:city": "Oakland", "addr:housenumber": "468", "addr:state": "CA", "addr:street": "8th Street", "amenity": "restaurant", "name": "Saucy Oakland", "old_name": "La Guerrera\u2019s Kitchen;Tamarindo"}}, {"type": "node", "id": 1186380370, "lat": 37.8003993, "lon": -122.275353, "tags": {"amenity": "restaurant", "cuisine": "pizza", "name": "Graffiti Pizza", "old_name": "Cock-A-Doodle Cafe"}}, {"type": "node", "id": 1186380389, "lat": 37.8011652, "lon": -122.274475, "tags": {"amenity": "restaurant", "name": "Square Pie Guys", "old_name": "Desco;Benchmark", "wheelchair": "yes"}}, {"type": "node", "id": 1186413846, "lat": 37.8029646, "lon": -122.272623, "tags": {"addr:city": "Oakland", "addr:housenumber": "1111", "addr:postcode": "94607", "addr:state": "CA", "addr:street": "Broadway", "amenity": "cafe", "cuisine": "coffee_shop", "level": "1", "name": "Highwire Coffee Roasters", "old_name": "Peet's Coffee", "takeaway": "yes", "wheelchair": "yes"}}, {"type": "node", "id": 1186413874, "lat": 37.8042743, "lon": -122.2735085, "tags": {"amenity": "restaurant", "brand": "Quiznos", "brand:wikidata": "Q1936229", "cuisine": "sandwich", "name": "Sushi to go", "takeaway": "yes", "wheelchair": "yes"}}, {"type": "node", "id": 1186413882, "lat": 37.8043165, "lon": -122.2730952, "tags": {"amenity": "restaurant", "cuisine": "mexican", "name": "La Salsa", "wheelchair": "yes"}}, {"type": "node", "id": 1186413903, "lat": 37.8045667, "lon": -122.2737553, "tags": {"amenity": "restaurant", "name": "Ladle and Leaf", "old_name": "San Francisco Soup Company", "wheelchair": "yes"}}, {"type": "node", "id": 1186413904, "lat": 37.8033757, "lon": -122.270445, "tags": {"addr:housenumber": "1301", "addr:street": "Franklin Street", "amenity": "restaurant", "check_date": "2023-08-19", "diet:vegetarian": "only", "name": "Golden Lotus Vegetarian"}}, {"type": "node", "id": 1186413906, "lat": 37.8042656, "lon": -122.27293, "tags": {"amenity": "restaurant", "cuisine": "sandwich", "name": "Bagel Street Cafe", "wheelchair": "yes"}}, {"type": "node", "id": 1186413938, "lat": 37.8043802, "lon": -122.2738572, "tags": {"addr:city": "Oakland", "addr:housenumber": "1200", "addr:postcode": "94612", "addr:state": "CA", "addr:street": "Clay Street", "addr:unit": "58", "amenity": "cafe", "branch": "Oakland City Center", "brand": "Starbucks", "brand:wikidata": "Q37158", "cuisine": "coffee_shop", "name": "Starbucks", "official_name": "Starbucks Coffee", "phone": "+1 510-832-1767", "ref": "16205", "takeaway": "yes", "website": "https://www.starbucks.com/store-locator/store/16205/oakland-city-center-1200-clay-street-58-oakland-ca-946121424-us", "wheelchair": "yes"}}, {"type": "node", "id": 1228088208, "lat": 37.8072573, "lon": -122.2699963, "tags": {"amenity": "cafe", "cuisine": "egyptian", "name": "Cairo Station Cafe", "old_name": "Fat Cat Cafe"}}, {"type": "node", "id": 1256122505, "lat": 37.8083991, "lon": -122.2696824, "tags": {"addr:housenumber": "1916", "amenity": "restaurant", "contact:phone": "+1-510-986-0151", "contact:website": "http://xolotaqueria.com/", "cuisine": "mexican", "diet:vegan": "yes", "diet:vegetarian": "yes", "name": "Xolo Taqueria", "opening_hours": "Mo-Tu 9:00-22:00; We-Th 9:00-23:00; Fr-Sa 9:00-24:00", "wheelchair": "yes"}}, {"type": "node", "id": 1256122522, "lat": 37.8031838, "lon": -122.270803, "tags": {"addr:housenumber": "411", "amenity": "cafe", "cuisine": "coffee_shop", "name": "Rasa Caffe", "old_name": "Modern Coffee", "opening_hours": "Tu-Fr 07:30-15:00"}}, {"type": "node", "id": 1280974508, "lat": 37.807813, "lon": -122.2726415, "tags": {"addr:housenumber": "1745", "addr:street": "San Pablo Avenue", "amenity": "restaurant", "name": "Mockingbird", "wheelchair": "yes"}}, {"type": "node", "id": 1378048909, "lat": 37.8004181, "lon": -122.2739103, "tags": {"amenity": "cafe", "check_date": "2024-06-10", "cuisine": "yemeni", "name": "Sana'a Cafe", "old_name": "Starbucks", "wheelchair": "yes"}}, {"type": "node", "id": 1456072712, "lat": 37.8045924, "lon": -122.272563, "tags": {"amenity": "restaurant", "cuisine": "sandwich", "description": "halal", "name": "Marhabah", "wheelchair": "yes"}}, {"type": "node", "id": 1556251695, "lat": 37.8065254, "lon": -122.272214, "tags": {"amenity": "restaurant", "comment": "hotboys opened Dec 2019", "cuisine": "chicken", "name": "World Famous HotBoys", "old_name": "I B's Hoagies & Cheesesteak", "wheelchair": "yes"}}, {"type": "node", "id": 1556251702, "lat": 37.8090955, "lon": -122.273033, "tags": {"addr:city": "Oakland", "addr:housenumber": "1901", "addr:state": "CA", "addr:street": "San Pablo Avenue", "amenity": "restaurant", "cuisine": "lao;thai", "name": "Rose Garden Uptown", "old_name": "Belly", "opening_hours": "Mo-Su 11:00-15:00,16:30-20:30"}}, {"type": "node", "id": 1556251744, "lat": 37.8069514, "lon": -122.272729, "tags": {"amenity": "restaurant", "cuisine": "vietnamese", "name": "Phuong Nam", "wheelchair": "yes"}}, {"type": "node", "id": 1556251754, "lat": 37.8070785, "lon": -122.2703767, "tags": {"addr:city": "Oakland", "addr:housenumber": "1711", "addr:postcode": "94612", "addr:street": "Telegraph Avenue", "amenity": "restaurant", "name": "Mama T's", "old_name": "Catered To You"}}, {"type": "node", "id": 1672899481, "lat": 37.805551, "lon": -122.2713125, "tags": {"amenity": "cafe", "name": "Caffe Teatro", "old_name": "Rotunda Plaza Cafe", "source": "Bing", "wheelchair": "yes"}}, {"type": "node", "id": 1674114050, "lat": 37.805899, "lon": -122.2715783, "tags": {"amenity": "restaurant", "name": "Saigon", "wheelchair": "yes"}}, {"type": "node", "id": 1812876793, "lat": 37.7990886, "lon": -122.2735311, "tags": {"addr:housenumber": "417", "addr:street": "7th Street", "amenity": "restaurant", "name": "Mac Khai", "phone": "+1 510 763 1767"}}, {"type": "node", "id": 2026996088, "lat": 37.8004797, "lon": -122.2749082, "tags": {"addr:housenumber": "736", "addr:street": "Washington Street", "amenity": "pub", "name": "Fort Green", "old_name": "The GO Sports Bar"}}, {"type": "node", "id": 2306696660, "lat": 37.8026413, "lon": -122.272845, "tags": {"addr:city": "Oakland", "addr:housenumber": "1111", "addr:postcode": "94607", "addr:state": "CA", "addr:street": "Broadway", "amenity": "restaurant", "name": "Bocanova", "old_name": "Faz", "wheelchair": "yes"}}, {"type": "node", "id": 2399950729, "lat": 37.8007949, "lon": -122.2713982, "tags": {"amenity": "restaurant", "cuisine": "chinese", "name": "Peony Restaurant"}}, {"type": "node", "id": 2722190630, "lat": 37.803094, "lon": -122.2706788, "tags": {"addr:city": "Oakland", "addr:housenumber": "401", "addr:postcode": "94607", "addr:street": "13th Street", "amenity": "restaurant", "cuisine": "american", "name": "Pierre Pierre", "old_name": "Tribune Tavern;Tribune"}}, {"type": "node", "id": 2722259999, "lat": 37.8052796, "lon": -122.2708642, "tags": {"addr:city": "Oakland", "addr:housenumber": "1429", "addr:postcode": "94612", "addr:street": "Broadway", "amenity": "cafe", "cuisine": "coffee_shop", "internet_access": "wlan", "name": "Awaken Cafe", "opening_hours": "Mo-Su 07:30-18:30"}}, {"type": "node", "id": 2735587759, "lat": 37.8012811, "lon": -122.2748109, "tags": {"addr:city": "Oakland", "addr:housenumber": "827", "addr:street": "Washington Street", "amenity": "restaurant", "drive_in": "no", "name": "District", "outdoor_seating": "yes", "wheelchair": "yes"}}, {"type": "node", "id": 2735588889, "lat": 37.8015557, "lon": -122.274655, "tags": {"addr:city": "Oakland", "addr:housenumber": "901", "addr:street": "Washington Street", "alt_name": "T'chaka Haitian Caribbean", "amenity": "restaurant", "drive_in": "no", "name": "T'chaka, Taste of Haiti", "old_name": "Miss Ollie's", "outdoor_seating": "no"}}, {"type": "node", "id": 2735681772, "lat": 37.8047784, "lon": -122.270655, "tags": {"addr:city": "Oakland", "addr:housenumber": "1430", "addr:street": "Broadway", "amenity": "restaurant", "cuisine": "chicken", "name": "Gus's World Famous Fried Chicken", "old_name": "Foot Locker", "was:shop": "shoes", "wheelchair": "yes"}}, {"type": "node", "id": 2865617587, "lat": 37.8016508, "lon": -122.27486, "tags": {"amenity": "restaurant", "name": "The Cook and Her Farmer", "opening_hours": "Mo 9:00-16:00; Tu-Th 9:00-21:00; Fr-Sa 9:00-22:00", "website": "https://www.thecookandherfarmer.com"}}, {"type": "node", "id": 2991052196, "lat": 37.8017151, "lon": -122.274557, "tags": {"addr:city": "Oakland", "addr:housenumber": "911", "addr:postcode": "94607", "addr:street": "Washington Street", "alt_name": "Huang Cheng Noodle House", "amenity": "restaurant", "contact:phone": "+1-702-481-3124", "contact:website": "https://www.huangchengnoodlehouse.com/", "cuisine": "chinese", "name": "Huangcheng Noodle House", "note": "noodle house moved to this located in late 2020", "old_name": "Rosamunde Sausage Grill", "opening_hours": "Mo, We-Su 10:00-21:00"}}, {"type": "node", "id": 3112083134, "lat": 37.8069554, "lon": -122.2704133, "tags": {"addr:city": "Oakland", "addr:housenumber": "1701", "addr:postcode": "94612", "addr:street": "Telegraph Avenue", "amenity": "restaurant", "name": "1701 Tasting Lounge", "old_name": "Woods Bar", "website": "https://1701oakland.com"}}, {"type": "node", "id": 3393108396, "lat": 37.8008533, "lon": -122.2750704, "tags": {"addr:housenumber": "801", "addr:street": "Washington Street", "amenity": "restaurant", "name": "Bento House"}}, {"type": "node", "id": 3796476183, "lat": 37.800743, "lon": -122.271549, "tags": {"addr:housenumber": "388", "addr:postcode": "94607", "addr:street": "9th Street", "amenity": "restaurant", "cuisine": "chinese", "name": "Gum Kuo", "opening_hours": "Th-Tu 08:00-19:00", "phone": "(510) 268-1288"}}, {"type": "node", "id": 3796476191, "lat": 37.8010058, "lon": -122.2719245, "tags": {"amenity": "restaurant", "cuisine": "chinese", "name": "Tian Jin Dumplings"}}, {"type": "node", "id": 3796476196, "lat": 37.8008871, "lon": -122.271613, "tags": {"amenity": "restaurant", "cuisine": "ramen", "name": "Sobo Ramen"}}, {"type": "node", "id": 3796482765, "lat": 37.8028518, "lon": -122.2700262, "tags": {"amenity": "restaurant", "cuisine": "pakistani;indian", "diet:halal": "yes", "name": "Biryani Kabab"}}, {"type": "node", "id": 3796482766, "lat": 37.8023219, "lon": -122.2701221, "tags": {"addr:housenumber": "370", "amenity": "restaurant", "contact:phone": "+1-510-625-8889", "cuisine": "chinese", "name": "Spices 3!", "opening_hours": "Mo-Fr 10:30-23:00; Sa-Su 11:30-23:00"}}, {"type": "node", "id": 3796482771, "lat": 37.8021269, "lon": -122.2703528, "tags": {"addr:housenumber": "369", "amenity": "restaurant", "cuisine": "chinese", "name": "Spices Noodle House", "old_name": "Spices 3!; China Taste"}}, {"type": "node", "id": 3796568358, "lat": 37.807742, "lon": -122.2726134, "tags": {"amenity": "cafe", "name": "The Speaker Box Cafe"}}, {"type": "node", "id": 3796598567, "lat": 37.8045545, "lon": -122.269044, "tags": {"addr:city": "Oakland", "addr:housenumber": "381", "addr:postcode": "94612", "addr:state": "CA", "addr:street": "15th Street", "amenity": "restaurant", "cuisine": "mexican", "name": "Que Rico", "old_name": "Bissap Baobab", "was:cuisine": "senegalese"}}, {"type": "node", "id": 3796598572, "lat": 37.8050684, "lon": -122.2697189, "tags": {"addr:housenumber": "410", "addr:street": "15th Street", "amenity": "restaurant", "name": "Baba's House", "old_name": "Ichiro"}}, {"type": "node", "id": 3927998682, "lat": 37.8045545, "lon": -122.26933, "tags": {"addr:city": "Oakland", "addr:housenumber": "1442", "addr:state": "CA", "addr:street": "Franklin Street", "amenity": "restaurant", "cuisine": "thai", "name": "Pintoh Thai", "opening_hours": "Mo-Sa 11:30-14:30 16:30-21:00"}}, {"type": "node", "id": 3927998694, "lat": 37.8045376, "lon": -122.269749, "tags": {"amenity": "restaurant", "cuisine": "indian;nepalese", "name": "Delicious Curry House", "old_name": "Marhaba"}}, {"type": "node", "id": 3927998696, "lat": 37.8048226, "lon": -122.270626, "tags": {"addr:city": "Oakland", "addr:housenumber": "1438", "addr:street": "Broadway", "amenity": "restaurant", "cuisine": "pizza", "name": "Edible Happy Pizzeria", "old_name": "Bittersweet Cafe;Shiba Ramen"}}, {"type": "node", "id": 3933170653, "lat": 37.8005182, "lon": -122.2733311, "tags": {"amenity": "restaurant", "cuisine": "cambodian", "name": "Battambang"}}, {"type": "node", "id": 3933170762, "lat": 37.8012959, "lon": -122.2728321, "tags": {"amenity": "cafe", "name": "Cafe Gabriela"}}, {"type": "node", "id": 3933171210, "lat": 37.802917, "lon": -122.275275, "tags": {"addr:city": "Oakland", "addr:housenumber": "1009", "addr:postcode": "94607", "addr:state": "CA", "addr:street": "Clay Street", "amenity": "restaurant", "name": "Zara", "old_name": "Tigrai Cafe;Awazi Kitchen;Siam Bay"}}, {"type": "node", "id": 3969668593, "lat": 37.8048165, "lon": -122.268968, "tags": {"amenity": "restaurant", "cuisine": "cajun", "name": "Elaine's Cajun Cuisine", "old_name": "Garden House"}}, {"type": "node", "id": 3988389211, "lat": 37.7999628, "lon": -122.2722263, "tags": {"amenity": "restaurant", "name": "BA-LE"}}, {"type": "node", "id": 3988389213, "lat": 37.8000665, "lon": -122.2721727, "tags": {"amenity": "restaurant", "name": "Best Taste Restaurant"}}, {"type": "node", "id": 3989195988, "lat": 37.8017025, "lon": -122.2747854, "tags": {"amenity": "restaurant", "contact:phone": "+1 510-251-1113", "contact:website": "https://www.delacuro.com/", "cuisine": "japanese", "name": "Dela Curo", "opening_hours": "We-Sa 11:30-15:00,16:00-20:00; Tu 11:30-15:00,16:00-19:00"}}, {"type": "node", "id": 3992963290, "lat": 37.8007023, "lon": -122.2714511, "tags": {"amenity": "cafe", "name": "Cafe 88"}}, {"type": "node", "id": 3993096506, "lat": 37.802046, "lon": -122.2708906, "tags": {"amenity": "restaurant", "diet:vegetarian": "only", "name": "Nature Vegetarian Restaurant"}}, {"type": "node", "id": 3993102370, "lat": 37.8020855, "lon": -122.2716559, "tags": {"amenity": "cafe", "name": "High XII"}}, {"type": "node", "id": 4014986875, "lat": 37.8028768, "lon": -122.2815964, "tags": {"amenity": "restaurant", "name": "Hong Kong Fast Food"}}, {"type": "node", "id": 4014990798, "lat": 37.8029575, "lon": -122.2816932, "tags": {"amenity": "restaurant", "name": "Star Light Donuts"}}, {"type": "node", "id": 4014990823, "lat": 37.8030253, "lon": -122.2817681, "tags": {"amenity": "restaurant", "name": "Pizza Love"}}, {"type": "node", "id": 4014990841, "lat": 37.8028176, "lon": -122.281484, "tags": {"amenity": "restaurant", "name": "Rimy Mediterranean Grocery and Grill"}}, {"type": "node", "id": 4015662885, "lat": 37.8023396, "lon": -122.2752687, "tags": {"amenity": "restaurant", "cuisine": "indian", "name": "Annapurna", "old_name": "Breads of India"}}, {"type": "node", "id": 4095991379, "lat": 37.807468, "lon": -122.2699419, "tags": {"addr:housenumber": "1736", "addr:street": "Telegraph Avenue", "amenity": "restaurant", "cuisine": "ramen", "name": "Itani Ramen", "opening_hours": "Mo-Th, Su 11:30-23:00; Fr, Sa 11:30-00:00", "phone": "+1-510-788-7489", "website": "https://www.itaniramen.com/"}}, {"type": "node", "id": 4119828176, "lat": 37.8023409, "lon": -122.273204, "tags": {"amenity": "restaurant", "name": "Iron & Oak Restaurant and Bar", "old_name": "Level Two"}}, {"type": "node", "id": 4172199389, "lat": 37.8018381, "lon": -122.275422, "tags": {"addr:housenumber": "536", "amenity": "restaurant", "cuisine": "thai", "name": "At-Traros Thai Eatery", "old_name": "Delage"}}, {"type": "node", "id": 4197865790, "lat": 37.8061624, "lon": -122.2740191, "tags": {"amenity": "cafe", "name": "State Side Cafe", "old_name": "Annie's Deli"}}, {"type": "node", "id": 4197865801, "lat": 37.8050973, "lon": -122.2756955, "tags": {"amenity": "restaurant", "cuisine": "pizza;grill", "name": "Mun-cheeze"}}, {"type": "node", "id": 4197865803, "lat": 37.8050295, "lon": -122.2754568, "tags": {"amenity": "cafe", "name": "City Cup"}}, {"type": "node", "id": 4287030163, "lat": 37.8094986, "lon": -122.269846, "tags": {"addr:city": "Oakland", "addr:housenumber": "1951", "addr:postcode": "94612", "addr:state": "CA", "addr:street": "Telegraph Avenue", "amenity": "cafe", "bar": "yes", "cuisine": "coffee_shop", "name": "Kinfolx", "old_name": "Tertulia Coffee"}}, {"type": "node", "id": 4511357329, "lat": 37.8083077, "lon": -122.2727847, "tags": {"amenity": "cafe", "name": "Plenty", "opening_hours": "Mo-Fr 11:00-14:30; Su 11:00-15:00"}}, {"type": "node", "id": 5791306911, "lat": 37.8092978, "lon": -122.269863, "tags": {"addr:city": "Oakland", "addr:country": "US", "addr:postcode": "94612", "addr:state": "CA", "addr:unit": "2", "amenity": "restaurant", "cuisine": "fried_chicken;chicken", "name": "Hotbird", "old_name": "Roam"}}, {"type": "node", "id": 5937885382, "lat": 37.8048521, "lon": -122.2736792, "tags": {"addr:housenumber": "164", "amenity": "cafe", "name": "Modern Coffee"}}, {"type": "node", "id": 6053175145, "lat": 37.8017668, "lon": -122.2708391, "tags": {"amenity": "cafe", "name": "Graze and Gather"}}, {"type": "node", "id": 7443503913, "lat": 37.8031217, "lon": -122.2717079, "tags": {"amenity": "cafe", "name": "The Broadway Coffee"}}, {"type": "node", "id": 8613176465, "lat": 37.8036234, "lon": -122.27123, "tags": {"addr:housenumber": "430", "addr:street": "13th Street", "amenity": "restaurant", "name": "Oakland Street Food Co.", "old_name": "Camburger", "website": "https://oaklandstreetfood.com/"}}, {"type": "node", "id": 8613176476, "lat": 37.8038033, "lon": -122.270304, "tags": {"amenity": "cafe", "name": "Brewja Coffee", "old_name": "Binney Park Sandwich Shop", "was:amenity": "restaurant"}}, {"type": "node", "id": 8613176481, "lat": 37.8004578, "lon": -122.2748959, "tags": {"amenity": "restaurant", "name": "Xingones", "note": "located inside Fort Green bar"}}, {"type": "node", "id": 9098744909, "lat": 37.8010652, "lon": -122.2755671, "tags": {"addr:city": "Oakland", "addr:housenumber": "528", "addr:postcode": "94607", "addr:state": "CA", "addr:street": "8th Street", "amenity": "restaurant", "name": "Open Test Kitchen", "old_name": "Understory", "operator": "Oakland Bloom", "website": "https://oaklandbloom.org/programs/"}}, {"type": "node", "id": 9512186220, "lat": 37.8012551, "lon": -122.273941, "tags": {"amenity": "cafe", "brand": "Blue Bottle Coffee", "brand:wikidata": "Q4928917", "cuisine": "coffee_shop", "name": "Blue Bottle Coffee", "opening_hours": "Mo-Fr 07:00-17:00; Sa,Su 07:00-16:00", "takeaway": "yes"}}, {"type": "node", "id": 9603593196, "lat": 37.805734, "lon": -122.2773891, "tags": {"amenity": "cafe", "name": "Rio California", "website": "http://www.riocalifornia.com"}}, {"type": "node", "id": 9950257586, "lat": 37.8004416, "lon": -122.2718372, "tags": {"addr:city": "Oakland", "addr:housenumber": "388", "addr:postcode": "94607", "addr:state": "CA", "addr:street": "9th Street", "addr:unit": "suite 159", "amenity": "restaurant", "cuisine": "dessert;chinese", "name": "UC Dessert", "opening_hours": "Mo-Th 12:00-22:00 Fr-Su 11:00-22:00", "phone": "+1  5109228857", "website": "http://www.ucdessert.com/"}}, {"type": "node", "id": 10288955932, "lat": 37.8093575, "lon": -122.2731102, "tags": {"addr:housenumber": "1917", "addr:street": "San Pablo Avenue", "amenity": "restaurant", "cuisine": "pizza", "name": "Bloom", "old_name": "Slice Oak", "website": "https://www.bloomoakland.com/"}}, {"type": "node", "id": 10288955937, "lat": 37.8050783, "lon": -122.269744, "tags": {"addr:housenumber": "412", "addr:street": "15th Street", "amenity": "restaurant", "cuisine": "jamaican", "name": "Minto's"}}, {"type": "node", "id": 10313432689, "lat": 37.8075376, "lon": -122.269922, "tags": {"amenity": "restaurant", "cuisine": "sushi", "name": "Yonsei Handrolls"}}, {"type": "node", "id": 10563106208, "lat": 37.8025033, "lon": -122.272069, "tags": {"amenity": "cafe", "name": "The Caff\u00e8 by Mr. Espresso"}}, {"type": "node", "id": 10771482334, "lat": 37.8057191, "lon": -122.2720365, "tags": {"amenity": "restaurant", "name": "The Rotisserie Deli"}}, {"type": "node", "id": 11401490567, "lat": 37.8056817, "lon": -122.2742868, "tags": {"addr:city": "Oakland", "addr:housenumber": "578", "addr:state": "CA", "addr:street": "14th Street", "amenity": "restaurant", "name": "Clove and Hoof"}}, {"type": "node", "id": 11401519140, "lat": 37.8017616, "lon": -122.2749253, "tags": {"amenity": "restaurant", "cuisine": "mexican", "name": "La Guerrera's Kitchen", "old_name": "Hen House"}}, {"type": "node", "id": 11401519142, "lat": 37.8016837, "lon": -122.2749806, "tags": {"amenity": "restaurant", "contact:phone": "+1-510-823-2050", "contact:website": "http://www.delageoakland.com/", "cuisine": "sushi", "name": "Delage", "opening_hours": "Tu-Sa 17:30-21:30"}}, {"type": "node", "id": 11698820970, "lat": 37.8036964, "lon": -122.2728294, "tags": {"amenity": "restaurant", "cuisine": "pizza", "name": "City Center Pizzeria"}}, {"type": "node", "id": 11876934559, "lat": 37.8005261, "lon": -122.2742148, "tags": {"addr:city": "Oakland", "addr:housenumber": "464", "addr:state": "CA", "addr:street": "8th Street", "amenity": "restaurant", "cuisine": "barbecue", "name": "Horn Barbecue", "old_name": "Matty's Old Fashioned"}}, {"type": "node", "id": 12033861089, "lat": 37.8010623, "lon": -122.2749484, "tags": {"addr:housenumber": "815", "addr:street": "Washington Street", "addr:unit": "B", "amenity": "restaurant", "cuisine": "indian", "name": "Carry On Curry", "old_name": "What the Cluck;Poke Life;Holy Gelato!;La Snackaria"}}, {"type": "node", "id": 12218939070, "lat": 37.8016406, "lon": -122.2746063, "tags": {"addr:housenumber": "907", "addr:street": "Washington Street", "addr:unit": "H", "amenity": "restaurant", "cuisine": "chinese", "name": "Huang Cheng Potsticker", "note": "exact location inside of Swan's Market needs to be verified", "website": "https://www.huangchengpotsticker.com/"}}]}